{"type": "FeatureCollection", "features": [{"type": "Feature", "id": 560400267, "geometry": {"type": "Point", "coordinates": [-34.9275611, -8.0458839]}, "properties": {"amenity": "police", "name": "Delegacia de pol\u00edcia civil"}}, {"type": "Feature", "id": 560634122, "geometry": {"type": "Point", "coordinates": [-34.8897144, -8.0564122]}, "properties": {"amenity": "place_of_worship", "building": "church", "religion": "christian", "seamark:building:function": "church", "seamark:landmark:function": "church", "seamark:type": "landmark"}}, {"type": "Feature", "id": 561522272, "geometry": {"type": "Point", "coordinates": [-34.9013352, -8.0489938]}, "properties": {"amenity": "place_of_worship", "name": "Igreja das Gra\u00e7as", "religion": "christian"}}, {"type": "Feature", "id": 564834416, "geometry": {"type": "Point", "coordinates": [-34.8853147, -8.0892484]}, "properties": {"amenity": "place_of_worship", "building": "church", "name": "Igreja do Ros\u00e1rio", "religion": "christian", "seamark:building:function": "church", "seamark:landmark:function": "church", "seamark:type": "landmark"}}, {"type": "Feature", "id": 564994874, "geometry": {"type": "Point", "coordinates": [-34.8780453, -8.0670203]}, "properties": {"amenity": "place_of_worship", "denomination": "catholic", "religion": "christian"}}, {"type": "Feature", "id": 565038134, "geometry": {"type": "Point", "coordinates": [-34.8792449, -8.0708025]}, "properties": {"amenity": "place_of_worship", "building": "church", "religion": "christian", "seamark:building:function": "church", "seamark:landmark:function": "church", "seamark:type": "landmark"}}, {"type": "Feature", "id": 565781490, "geometry": {"type": "Point", "coordinates": [-34.896875, -8.0585763]}, "properties": {"amenity": "place_of_worship", "religion": "christian"}}, {"type": "Feature", "id": 1660050556, "geometry": {"type": "Point", "coordinates": [-34.8886586, -8.0126324]}, "properties": {"amenity": "townhall"}}, {"type": "Feature", "id": 1660050558, "geometry": {"type": "Point", "coordinates": [-34.8963541, -8.0433366]}, "properties": {"amenity": "waste_basket"}}, {"type": "Feature", "id": 1836066772, "geometry": {"type": "Point", "coordinates": [-34.8789919, -8.0660824]}, "properties": {"amenity": "toilets"}}, {"type": "Feature", "id": 2164145630, "geometry": {"type": "Point", "coordinates": [-34.9107954, -8.0620956]}, "properties": {"amenity": "place_of_worship", "name": "Igreja Santa Edwirges"}}, {"type": "Feature", "id": 2247140724, "geometry": {"type": "Point", "coordinates": [-34.9377411, -8.0405912]}, "properties": {"addr:housename": "Igraja da Iputinga", "addr:housenumber": "84", "addr:street": "Rua Dr. Virg\u00ednio Marques", "amenity": "place_of_worship", "name": "Igreja da Iputinga"}}, {"type": "Feature", "id": 2248566217, "geometry": {"type": "Point", "coordinates": [-34.9353351, -8.0366448]}, "properties": {"amenity": "place_of_worship", "name": "Igreja Batista"}}, {"type": "Feature", "id": 2380713974, "geometry": {"type": "Point", "coordinates": [-34.9105571, -8.0560612]}, "properties": {"addr:city": "Recife", "addr:housenumber": "151", "addr:street": "Avenida Caxang\u00e1", "amenity": "place_of_worship", "name": "Igreja Apost\u00f3lica Renascer"}}, {"type": "Feature", "id": 2426925255, "geometry": {"type": "Point", "coordinates": [-34.90583, -8.1285313]}, "properties": {"addr:city": "Recife", "amenity": "place_of_worship", "building": "church", "denomination": "catholic", "name": "igreja cat\u00f3lica de boa viagem", "religion": "christian"}}, {"type": "Feature", "id": 2426927502, "geometry": {"type": "Point", "coordinates": [-34.9013658, -8.1296358]}, "properties": {"amenity": "marketplace", "name": "Mercado de Boa Viagem"}}, {"type": "Feature", "id": 2532598046, "geometry": {"type": "Point", "coordinates": [-34.907392, -8.0521705]}, "properties": {"amenity": "place_of_worship", "name": "Paroquia da Madalena"}}, {"type": "Feature", "id": 2549076067, "geometry": {"type": "Point", "coordinates": [-34.9536463, -8.0462816]}, "properties": {"amenity": "grave_yard", "name": "Cemit\u00e9rio da V\u00e1rzea"}}, {"type": "Feature", "id": 2556159987, "geometry": {"type": "Point", "coordinates": [-34.924563, -8.0582638]}, "properties": {"amenity": "post_office"}}, {"type": "Feature", "id": 2889084347, "geometry": {"type": "Point", "coordinates": [-34.8983822, -8.0413904]}, "properties": {"addr:city": "Recife", "addr:street": "Avenida Conselheiro Rosa e Silva", "amenity": "place_of_worship", "name": "CEBB", "religion": "buddhist"}}, {"type": "Feature", "id": 2919672504, "geometry": {"type": "Point", "coordinates": [-34.8787531, -8.0685655]}, "properties": {"amenity": "place_of_worship", "building": "church", "name": "Igreja da Penha", "religion": "christian", "seamark:building:function": "church", "seamark:landmark:function": "church", "seamark:type": "landmark"}}, {"type": "Feature", "id": 2919673059, "geometry": {"type": "Point", "coordinates": [-34.8859798, -8.0601234]}, "properties": {"amenity": "place_of_worship", "building": "church", "religion": "christian", "seamark:building:function": "church", "seamark:landmark:function": "church", "seamark:type": "landmark"}}, {"type": "Feature", "id": 2919673060, "geometry": {"type": "Point", "coordinates": [-34.8865632, -8.0606439]}, "properties": {"amenity": "place_of_worship", "building": "church", "religion": "christian", "seamark:building:function": "church", "seamark:landmark:function": "church", "seamark:type": "landmark"}}, {"type": "Feature", "id": 2919673061, "geometry": {"type": "Point", "coordinates": [-34.8881088, -8.0625521]}, "properties": {"amenity": "place_of_worship", "building": "church", "name": "Igreja de Santa Cruz", "religion": "christian", "seamark:building:function": "church", "seamark:landmark:function": "church", "seamark:type": "landmark"}}, {"type": "Feature", "id": 2919673062, "geometry": {"type": "Point", "coordinates": [-34.885274, -8.0628999]}, "properties": {"amenity": "place_of_worship", "building": "church", "name": "Igreja da Imperatriz", "religion": "christian", "seamark:building:function": "church", "seamark:landmark:function": "church", "seamark:type": "landmark"}}, {"type": "Feature", "id": 2919673063, "geometry": {"type": "Point", "coordinates": [-34.8803359, -8.06415]}, "properties": {"amenity": "place_of_worship", "building": "church", "religion": "christian", "seamark:building:function": "church", "seamark:landmark:function": "church", "seamark:type": "landmark"}}, {"type": "Feature", "id": 2919673065, "geometry": {"type": "Point", "coordinates": [-34.8782794, -8.07035]}, "properties": {"amenity": "place_of_worship", "building": "church", "religion": "christian", "seamark:building:function": "church", "seamark:landmark:function": "church", "seamark:type": "landmark"}}, {"type": "Feature", "id": 2964888606, "geometry": {"type": "Point", "coordinates": [-34.9246785, -7.9992061]}, "properties": {"addr:city": "Recife", "addr:street": "Rua Teol\u00e2ndia", "amenity": "place_of_worship", "denomination": "methodist", "religion": "christian"}}, {"type": "Feature", "id": 3169805103, "geometry": {"type": "Point", "coordinates": [-34.926313, -8.0467127]}, "properties": {"amenity": "townhall", "name": "Expresso Cidad\u00e3o Cordeiro"}}, {"type": "Feature", "id": 3194795258, "geometry": {"type": "Point", "coordinates": [-34.9205195, -8.0210575]}, "properties": {"amenity": "place_of_worship", "name": "Quadrangular", "religion": "christian"}}, {"type": "Feature", "id": 3203334716, "geometry": {"type": "Point", "coordinates": [-34.9253394, -8.0367904]}, "properties": {"amenity": "place_of_worship", "denomination": "catholic", "name": "Nossa Senhora da Sa\u00fade", "religion": "christian"}}, {"type": "Feature", "id": 3463252189, "geometry": {"type": "Point", "coordinates": [-34.8705122, -8.0494093]}, "properties": {"amenity": "fire_station", "name": "Se\u00e7\u00e3o de Bombeiros - Porto do Recife", "operator": "CBMPE"}}, {"type": "Feature", "id": 3463252266, "geometry": {"type": "Point", "coordinates": [-34.8902248, -8.0514189]}, "properties": {"amenity": "fire_station", "name": "Se\u00e7\u00e3o de Bombeiros - Boa Vista", "operator": "CBMPE"}}, {"type": "Feature", "id": 3717484095, "geometry": {"type": "Point", "coordinates": [-34.9135239, -8.0949374]}, "properties": {"amenity": "police", "name": "Posto de Policiamento Comunit\u00e1rio Lagoa do Ara\u00e7\u00e1"}}, {"type": "Feature", "id": 3721905841, "geometry": {"type": "Point", "coordinates": [-34.9010802, -8.1307106]}, "properties": {"amenity": "post_office", "name": "Correios"}}, {"type": "Feature", "id": 3723550428, "geometry": {"type": "Point", "coordinates": [-34.910638, -8.0931635]}, "properties": {"amenity": "place_of_worship", "denomination": "mormon", "name": "Igreja de Jesus Cristo dos Santos dos \u00daltimos Dias", "religion": "christian"}}, {"type": "Feature", "id": 3870075881, "geometry": {"type": "Point", "coordinates": [-34.8722391, -8.0584357]}, "properties": {"amenity": "bench", "material": "wood", "seats": "2"}}, {"type": "Feature", "id": 3870075882, "geometry": {"type": "Point", "coordinates": [-34.872323, -8.0584895]}, "properties": {"amenity": "bench", "material": "wood", "seats": "2"}}, {"type": "Feature", "id": 3870075883, "geometry": {"type": "Point", "coordinates": [-34.8718571, -8.0584911]}, "properties": {"amenity": "bench", "material": "wood", "seats": "2"}}, {"type": "Feature", "id": 3870075884, "geometry": {"type": "Point", "coordinates": [-34.8722053, -8.0585009]}, "properties": {"amenity": "bench", "material": "wood", "seats": "2"}}, {"type": "Feature", "id": 3870075885, "geometry": {"type": "Point", "coordinates": [-34.8719106, -8.0585449]}, "properties": {"amenity": "bench", "material": "wood", "seats": "2"}}, {"type": "Feature", "id": 3870075886, "geometry": {"type": "Point", "coordinates": [-34.8722555, -8.0585449]}, "properties": {"amenity": "bench", "material": "wood", "seats": "2"}}, {"type": "Feature", "id": 3870075888, "geometry": {"type": "Point", "coordinates": [-34.872165, -8.0585669]}, "properties": {"amenity": "bench", "material": "wood", "seats": "2"}}, {"type": "Feature", "id": 3870075889, "geometry": {"type": "Point", "coordinates": [-34.871792, -8.0585677]}, "properties": {"amenity": "bench", "material": "wood", "seats": "2"}}, {"type": "Feature", "id": 3870075890, "geometry": {"type": "Point", "coordinates": [-34.8720851, -8.0585783]}, "properties": {"amenity": "bench", "material": "wood", "seats": "2"}}, {"type": "Feature", "id": 3870075891, "geometry": {"type": "Point", "coordinates": [-34.8720514, -8.0585824]}, "properties": {"amenity": "bench", "material": "wood", "seats": "2"}}, {"type": "Feature", "id": 3870075892, "geometry": {"type": "Point", "coordinates": [-34.8721164, -8.0585832]}, "properties": {"amenity": "bench", "material": "wood", "seats": "2"}}, {"type": "Feature", "id": 3870075895, "geometry": {"type": "Point", "coordinates": [-34.8721987, -8.0585946]}, "properties": {"amenity": "bench", "material": "wood", "seats": "2"}}, {"type": "Feature", "id": 3870075896, "geometry": {"type": "Point", "coordinates": [-34.8719674, -8.0585971]}, "properties": {"amenity": "bench", "material": "wood", "seats": "2"}}, {"type": "Feature", "id": 3870075897, "geometry": {"type": "Point", "coordinates": [-34.8720225, -8.0585971]}, "properties": {"amenity": "bench", "material": "wood", "seats": "2"}}, {"type": "Feature", "id": 3870075898, "geometry": {"type": "Point", "coordinates": [-34.8718727, -8.0586003]}, "properties": {"amenity": "bench", "material": "wood", "seats": "2"}}, {"type": "Feature", "id": 3870075902, "geometry": {"type": "Point", "coordinates": [-34.8719443, -8.0586321]}, "properties": {"amenity": "bench", "material": "wood", "seats": "2"}}, {"type": "Feature", "id": 3870075905, "geometry": {"type": "Point", "coordinates": [-34.872188, -8.0586419]}, "properties": {"amenity": "bench", "material": "wood", "seats": "2"}}, {"type": "Feature", "id": 3870075912, "geometry": {"type": "Point", "coordinates": [-34.8719674, -8.0586729]}, "properties": {"amenity": "bench", "material": "wood", "seats": "2"}}, {"type": "Feature", "id": 3870075914, "geometry": {"type": "Point", "coordinates": [-34.8722012, -8.0586818]}, "properties": {"amenity": "bench", "material": "wood", "seats": "2"}}, {"type": "Feature", "id": 3870075921, "geometry": {"type": "Point", "coordinates": [-34.8719674, -8.0587169]}, "properties": {"amenity": "bench", "material": "wood", "seats": "2"}}, {"type": "Feature", "id": 3870075922, "geometry": {"type": "Point", "coordinates": [-34.8722004, -8.0587185]}, "properties": {"amenity": "bench", "material": "wood", "seats": "2"}}, {"type": "Feature", "id": 3870075930, "geometry": {"type": "Point", "coordinates": [-34.8719781, -8.0587511]}, "properties": {"amenity": "bench", "material": "wood", "seats": "2"}}, {"type": "Feature", "id": 3870075932, "geometry": {"type": "Point", "coordinates": [-34.8722209, -8.0587585]}, "properties": {"amenity": "bench", "material": "wood", "seats": "2"}}, {"type": "Feature", "id": 3870075937, "geometry": {"type": "Point", "coordinates": [-34.8721501, -8.0587943]}, "properties": {"amenity": "bench", "material": "wood", "seats": "2"}}, {"type": "Feature", "id": 3870075938, "geometry": {"type": "Point", "coordinates": [-34.8721979, -8.058796]}, "properties": {"amenity": "bench", "material": "wood", "seats": "2"}}, {"type": "Feature", "id": 3870075939, "geometry": {"type": "Point", "coordinates": [-34.8723074, -8.058796]}, "properties": {"amenity": "bench", "material": "wood", "seats": "2"}}, {"type": "Feature", "id": 3870075941, "geometry": {"type": "Point", "coordinates": [-34.8719723, -8.0587968]}, "properties": {"amenity": "bench", "material": "wood", "seats": "2"}}, {"type": "Feature", "id": 3870075943, "geometry": {"type": "Point", "coordinates": [-34.8720538, -8.0588074]}, "properties": {"amenity": "bench", "material": "wood", "seats": "2"}}, {"type": "Feature", "id": 3870075944, "geometry": {"type": "Point", "coordinates": [-34.8721197, -8.0588074]}, "properties": {"amenity": "bench", "material": "wood", "seats": "2"}}, {"type": "Feature", "id": 3870075945, "geometry": {"type": "Point", "coordinates": [-34.8720859, -8.0588131]}, "properties": {"amenity": "bench", "material": "wood", "seats": "2"}}, {"type": "Feature", "id": 3870075946, "geometry": {"type": "Point", "coordinates": [-34.8720036, -8.0588237]}, "properties": {"amenity": "bench", "material": "wood", "seats": "2"}}, {"type": "Feature", "id": 3870075947, "geometry": {"type": "Point", "coordinates": [-34.8723856, -8.0588302]}, "properties": {"amenity": "bench", "material": "wood", "seats": "2"}}, {"type": "Feature", "id": 3870075948, "geometry": {"type": "Point", "coordinates": [-34.8722572, -8.0588506]}, "properties": {"amenity": "bench", "material": "wood", "seats": "2"}}, {"type": "Feature", "id": 3870075949, "geometry": {"type": "Point", "coordinates": [-34.8719007, -8.0588563]}, "properties": {"amenity": "bench", "material": "wood", "seats": "2"}}, {"type": "Feature", "id": 3870075950, "geometry": {"type": "Point", "coordinates": [-34.8719624, -8.058893]}, "properties": {"amenity": "bench", "material": "wood", "seats": "2"}}, {"type": "Feature", "id": 3870075951, "geometry": {"type": "Point", "coordinates": [-34.8723049, -8.0588962]}, "properties": {"amenity": "bench", "material": "wood", "seats": "2"}}, {"type": "Feature", "id": 3870075952, "geometry": {"type": "Point", "coordinates": [-34.8718365, -8.0589101]}, "properties": {"amenity": "bench", "material": "wood", "seats": "2"}}, {"type": "Feature", "id": 3870075953, "geometry": {"type": "Point", "coordinates": [-34.8719295, -8.0589533]}, "properties": {"amenity": "bench", "material": "wood", "seats": "2"}}, {"type": "Feature", "id": 3892711095, "geometry": {"type": "Point", "coordinates": [-34.8815327, -8.0903883]}, "properties": {"amenity": "police"}}, {"type": "Feature", "id": 4310260061, "geometry": {"type": "Point", "coordinates": [-34.8799165, -8.062542]}, "properties": {"amenity": "post_office", "name": "Ag\u00eancia Central de Recife", "operator": "Empresa Brasileira de Corrreios e Tel\u00e9grafos"}}, {"type": "Feature", "id": 4346612671, "geometry": {"type": "Point", "coordinates": [-34.9024356, -8.1390485]}, "properties": {"amenity": "toilets"}}, {"type": "Feature", "id": 4384306889, "geometry": {"type": "Point", "coordinates": [-34.8738748, -8.0642646]}, "properties": {"amenity": "place_of_worship"}}, {"type": "Feature", "id": 4385251589, "geometry": {"type": "Point", "coordinates": [-34.8737746, -8.0642474]}, "properties": {"addr:street": "Rua Madre de Deus", "amenity": "place_of_worship", "name:en": "Igreja da Madre de Deus"}}, {"type": "Feature", "id": 4474021958, "geometry": {"type": "Point", "coordinates": [-34.9144834, -8.1405694]}, "properties": {"addr:city": "Recife", "addr:suburb": "Set\u00fabal", "amenity": "place_of_worship", "name": "Igreja Presbiteriana", "religion": "christian"}}, {"type": "Feature", "id": 4475314431, "geometry": {"type": "Point", "coordinates": [-34.9252076, -8.0887055]}, "properties": {"addr:city": "Recife", "addr:suburb": "Jiqui\u00e1", "amenity": "marketplace", "name": "Mercadinho Vit\u00f3ria"}}, {"type": "Feature", "id": 4490728792, "geometry": {"type": "Point", "coordinates": [-34.9110882, -8.0363205]}, "properties": {"amenity": "place_of_worship", "name": "Templo de recife", "name:en": "Recife Temple", "name:pt": "Templo de recife"}}, {"type": "Feature", "id": 4492496489, "geometry": {"type": "Point", "coordinates": [-34.9511855, -8.0908938]}, "properties": {"amenity": "police", "name": "4\u00b0 Batalh\u00e3o de Comunica\u00e7\u00f5es - Port\u00e3o Lateral", "name:pt": "4\u00b0 Batalh\u00e3o de Comunica\u00e7\u00f5es - Port\u00e3o Lateral"}}, {"type": "Feature", "id": 4658081089, "geometry": {"type": "Point", "coordinates": [-34.9169559, -8.1132139]}, "properties": {"addr:housenumber": "33", "addr:street": "Rua Rio Jord\u00e3o", "amenity": "place_of_worship", "name": "IABV IPSEP"}}, {"type": "Feature", "id": 4661131291, "geometry": {"type": "Point", "coordinates": [-34.9029698, -8.1322086]}, "properties": {"amenity": "place_of_worship", "name": "IABV BV", "name:pt": "IABV BV"}}, {"type": "Feature", "id": 4710220119, "geometry": {"type": "Point", "coordinates": [-34.9091587, -8.1279072]}, "properties": {"addr:city": "Recife", "addr:street": "Rua Monsenhor Paulo", "addr:suburb": "Boa Viagem", "amenity": "marketplace", "name": "Maravilha Supermercado"}}, {"type": "Feature", "id": 4741372423, "geometry": {"type": "Point", "coordinates": [-34.8921642, -8.0370724]}, "properties": {"addr:street": "Largo da Encruzilhada", "amenity": "marketplace", "building": "yes", "name": "Mercado P\u00fablico da Encruzilhada", "name:en": "Encruzilhada Public Market", "name:pt": "Mercado P\u00fablico da Encruzilhada", "tourism": "attraction"}}, {"type": "Feature", "id": 4741387622, "geometry": {"type": "Point", "coordinates": [-34.8946358, -8.0368252]}, "properties": {"addr:street": "Avenida Norte Miguel Arraes de Alencar", "amenity": "post_office", "name": "Ag\u00eancia dos Correios", "name:en": "Postal Services", "name:pt": "Ag\u00eancia dos Correios"}}, {"type": "Feature", "id": 4751294315, "geometry": {"type": "Point", "coordinates": [-34.9597542, -8.0815929]}, "properties": {"amenity": "place_of_worship", "name": "Capela"}}, {"type": "Feature", "id": 4757780723, "geometry": {"type": "Point", "coordinates": [-34.8773968, -8.0625201]}, "properties": {"amenity": "place_of_worship", "name:en": "Capela Dourada"}}]}