{"type": "FeatureCollection", "features": [{"type": "Feature", "id": 530812715, "geometry": {"type": "Point", "coordinates": [-34.9391684, -8.0384348]}, "properties": {"amenity": "hospital", "name": "Hospital Bar\u00e3o de Lucena"}}, {"type": "Feature", "id": 560397916, "geometry": {"type": "Point", "coordinates": [-34.8964475, -8.0624473]}, "properties": {"amenity": "pharmacy"}}, {"type": "Feature", "id": 561522234, "geometry": {"type": "Point", "coordinates": [-34.9260029, -8.1000157]}, "properties": {"amenity": "hospital", "name": "Hospital Geral de Areias"}}, {"type": "Feature", "id": 561522283, "geometry": {"type": "Point", "coordinates": [-34.9007258, -8.0511015]}, "properties": {"amenity": "hospital", "name": "Hospital Jaime da Fonte"}}, {"type": "Feature", "id": 1120603777, "geometry": {"type": "Point", "coordinates": [-34.945715, -8.0474867]}, "properties": {"amenity": "hospital", "name": "hospital da UFPE"}}, {"type": "Feature", "id": 1655878223, "geometry": {"type": "Point", "coordinates": [-34.9064413, -8.0476593]}, "properties": {"amenity": "pharmacy", "dispensing": "yes", "name": "Farm\u00e1cia Pague Menos"}}, {"type": "Feature", "id": 2166849327, "geometry": {"type": "Point", "coordinates": [-34.90762, -8.0615719]}, "properties": {"amenity": "pharmacy", "name": "Big Ben"}}, {"type": "Feature", "id": 2380713967, "geometry": {"type": "Point", "coordinates": [-34.9095907, -8.0566505]}, "properties": {"addr:city": "Recife", "addr:street": "Avenida Caxang\u00e1", "amenity": "pharmacy", "name": "Farm\u00e1cia Parceria", "phone": "55 81 32279498"}}, {"type": "Feature", "id": 2380713977, "geometry": {"type": "Point", "coordinates": [-34.9108202, -8.055914]}, "properties": {"addr:city": "Recife", "addr:housenumber": "188", "addr:street": "Avenida Caxang\u00e1", "amenity": "pharmacy", "name": "Farm\u00e1cia Popular do Brasil"}}, {"type": "Feature", "id": 2418401653, "geometry": {"type": "Point", "coordinates": [-34.9064762, -8.0515076]}, "properties": {"addr:street": "Avenida Visconde de Albuquerque", "amenity": "pharmacy", "name": "Drogaria Madalena"}}, {"type": "Feature", "id": 2532661494, "geometry": {"type": "Point", "coordinates": [-34.9069681, -8.0531943]}, "properties": {"amenity": "pharmacy", "name": "Farm\u00e1cia dos Pobres"}}, {"type": "Feature", "id": 2532661495, "geometry": {"type": "Point", "coordinates": [-34.9070475, -8.0531894]}, "properties": {"amenity": "pharmacy", "name": "Farm\u00e1cia do Trabalhador"}}, {"type": "Feature", "id": 2639497584, "geometry": {"type": "Point", "coordinates": [-34.894988, -8.039151]}, "properties": {"addr:housenumber": "324", "addr:street": "Rua Carneiro Vilela", "amenity": "doctors", "name": "Cl\u00ednica Pepita Duran", "phone": "81-3426-0834"}}, {"type": "Feature", "id": 3208936299, "geometry": {"type": "Point", "coordinates": [-34.9126174, -8.0238615]}, "properties": {"amenity": "pharmacy", "name": "Farm\u00e1cia Bom Jesus"}}, {"type": "Feature", "id": 3717396459, "geometry": {"type": "Point", "coordinates": [-34.9133231, -8.0946993]}, "properties": {"amenity": "pharmacy", "name": "Farm\u00e1cias Pernambucanas"}}, {"type": "Feature", "id": 3717640103, "geometry": {"type": "Point", "coordinates": [-34.9099063, -8.0913179]}, "properties": {"amenity": "pharmacy", "name": "Farm\u00e1cia Brilhante"}}, {"type": "Feature", "id": 3782779500, "geometry": {"type": "Point", "coordinates": [-34.9025775, -8.0348295]}, "properties": {"addr:street": "Avenida Conselheiro Rosa e Silva", "amenity": "pharmacy", "name": "Farm\u00e1cia Pague Menos"}}, {"type": "Feature", "id": 4254088363, "geometry": {"type": "Point", "coordinates": [-34.8739296, -8.0422294]}, "properties": {"amenity": "hospital", "emergency": "yes", "name": "Hospital Santo Amaro", "website": "http://www.santacasarecife.org.br"}}, {"type": "Feature", "id": 4331459750, "geometry": {"type": "Point", "coordinates": [-34.8953724, -8.0359024]}, "properties": {"addr:street": "Avenida Norte Miguel Arraes de Alencar", "amenity": "hospital", "name": "Pronto Socorro Infantil Jorge de Medeiros"}}, {"type": "Feature", "id": 4337929757, "geometry": {"type": "Point", "coordinates": [-34.9159164, -8.0230689]}, "properties": {"amenity": "clinic", "name": "Posto de Sa\u00fade de Casa Amarela"}}, {"type": "Feature", "id": 4337935005, "geometry": {"type": "Point", "coordinates": [-34.9182142, -8.030721]}, "properties": {"addr:city": "Recife", "addr:street": "Estrada do Encanamento", "addr:suburb": "Casa Forte", "amenity": "hospital", "emergency": "yes", "name": "Hospital Santa Luzia"}}, {"type": "Feature", "id": 4351246949, "geometry": {"type": "Point", "coordinates": [-34.8959054, -8.1169074]}, "properties": {"amenity": "pharmacy", "name": "Drogaria S\u00e3o Paulo"}}, {"type": "Feature", "id": 4442276764, "geometry": {"type": "Point", "coordinates": [-34.9120235, -8.0241418]}, "properties": {"amenity": "pharmacy", "name": "Farm\u00e1cia Pague Menos"}}, {"type": "Feature", "id": 4442276765, "geometry": {"type": "Point", "coordinates": [-34.9104171, -8.0245649]}, "properties": {"amenity": "pharmacy", "name": "Farm\u00e1cia Monte Reis"}}, {"type": "Feature", "id": 4448555245, "geometry": {"type": "Point", "coordinates": [-34.8977293, -8.064409]}, "properties": {"amenity": "hospital", "name": "Real Hospital Portugu\u00eas"}}, {"type": "Feature", "id": 4448555246, "geometry": {"type": "Point", "coordinates": [-34.8973203, -8.0539972]}, "properties": {"amenity": "hospital", "name": "Hospital da Restaura\u00e7\u00e3o"}}, {"type": "Feature", "id": 4448555247, "geometry": {"type": "Point", "coordinates": [-34.8982486, -8.0524741]}, "properties": {"addr:street": "Rua Joaquim Nabuco", "amenity": "hospital", "name": "Hospital Santa Joana"}}, {"type": "Feature", "id": 4448555249, "geometry": {"type": "Point", "coordinates": [-34.8957153, -8.0669892]}, "properties": {"addr:street": "Rua Ant\u00f4nio Gomes de Freitas", "amenity": "hospital", "name": "Hospital Esperan\u00e7a"}}, {"type": "Feature", "id": 4448555250, "geometry": {"type": "Point", "coordinates": [-34.8958409, -8.0669051]}, "properties": {"amenity": "hospital", "name": "HOPE - Hospital de Olhos de Pernambuco"}}, {"type": "Feature", "id": 4448618256, "geometry": {"type": "Point", "coordinates": [-34.8941716, -8.0677407]}, "properties": {"addr:street": "Pra\u00e7a Miguel Cervantes", "amenity": "hospital", "name": "Hospital Unimed Recife"}}, {"type": "Feature", "id": 4454286776, "geometry": {"type": "Point", "coordinates": [-34.9027144, -8.0539901]}, "properties": {"addr:housenumber": "11", "addr:street": "Rua Bet\u00e2nia", "amenity": "clinic", "name": "Cl\u00ednica Homeop\u00e1tica Medicina Interna"}}, {"type": "Feature", "id": 4459851889, "geometry": {"type": "Point", "coordinates": [-34.907489, -8.0304218]}, "properties": {"amenity": "hospital", "name": "Hospital Agamenon Magalh\u00e3es"}}, {"type": "Feature", "id": 4475446391, "geometry": {"type": "Point", "coordinates": [-34.892448, -8.10851]}, "properties": {"addr:street": "Ana Carmelo de Silva", "amenity": "clinic", "internet_access": "wlan", "name": "Hospital Boa Viagem", "opening_hours": "24/7"}}, {"type": "Feature", "id": 4476347690, "geometry": {"type": "Point", "coordinates": [-34.892363, -8.1103984]}, "properties": {"addr:housenumber": "2268", "addr:postcode": "51020031", "addr:street": "Avenida Engenheiro Domingos Ferreira", "amenity": "pharmacy", "name": "Farm\u00e1cia Big Ben", "name:pt": "Farm\u00e1cia Big Ben", "opening_hours": "24/7"}}, {"type": "Feature", "id": 4675828744, "geometry": {"type": "Point", "coordinates": [-34.9066147, -8.0822336]}, "properties": {"addr:city": "Recife", "addr:housenumber": "248", "addr:postcode": "50770-110", "addr:street": "Rua Motocolomb\u00f3", "addr:suburb": "Afogados", "amenity": "dentist", "name": "Claudia Cirurgi\u00e3 Dentista"}}, {"type": "Feature", "id": 4687759993, "geometry": {"type": "Point", "coordinates": [-34.8933207, -8.0468224]}, "properties": {"addr:housenumber": "1-269", "addr:postcode": "52020", "addr:street": "Rua Jos\u00e9 Lu\u00eds de S. Barros", "amenity": "hospital", "name": "Hapvida Espinheiro"}}, {"type": "Feature", "id": 4693866794, "geometry": {"type": "Point", "coordinates": [-34.9026662, -8.0346552]}, "properties": {"amenity": "pharmacy", "name": "Extra Farma"}}, {"type": "Feature", "id": 4710265636, "geometry": {"type": "Point", "coordinates": [-34.9012949, -8.1245804]}, "properties": {"addr:city": "Recife", "addr:street": "Rua Ernesto de Paula Santos", "addr:suburb": "Boa Viagem", "amenity": "pharmacy", "drive_through": "no", "name": "Drogasil"}}, {"type": "Feature", "id": 4741372424, "geometry": {"type": "Point", "coordinates": [-34.8908755, -8.0370048]}, "properties": {"addr:street": "Estrada de Bel\u00e9m", "amenity": "pharmacy", "name": "Farm\u00e1cia Pague Menos", "name:pt": "Farm\u00e1cia Pague Menos"}}, {"type": "Feature", "id": 4752703925, "geometry": {"type": "Point", "coordinates": [-34.8984118, -8.035455]}, "properties": {"addr:street": "Rua Doutor Jos\u00e9 Maria", "amenity": "pharmacy", "name": "Drogasil", "name:pt": "Drogasil"}}, {"type": "Feature", "id": 4760561922, "geometry": {"type": "Point", "coordinates": [-34.9443324, -8.0373924]}, "properties": {"addr:housenumber": "4474", "addr:street": "Avenida Caxang\u00e1", "amenity": "pharmacy", "name": "Drogasil", "name:en": "Drogasil", "name:pt": "Drogasil"}}, {"type": "Feature", "id": 4771160122, "geometry": {"type": "Point", "coordinates": [-34.9022085, -8.0337317]}, "properties": {"amenity": "hospital", "name": "Hospital Pernambucano", "name:pt": "Hospital Pernambucano"}}, {"type": "Feature", "id": 4798951430, "geometry": {"type": "Point", "coordinates": [-34.8960174, -8.0326138]}, "properties": {"addr:street": "Avenida Santos Dumont", "amenity": "pharmacy", "name": "Drogaria Bongi", "name:pt": "Drogaria Bongi"}}, {"type": "Feature", "id": 4798970323, "geometry": {"type": "Point", "coordinates": [-34.8913661, -8.0368211]}, "properties": {"addr:street": "Largo da Encruzilhada", "amenity": "pharmacy", "name": "Farm\u00e1cia Big Ben", "name:pt": "Farm\u00e1cia Big Ben"}}, {"type": "Feature", "id": 4802799925, "geometry": {"type": "Point", "coordinates": [-34.891187, -8.0358889]}, "properties": {"addr:street": "Avenida Beberibe", "amenity": "pharmacy", "name": "Drogasil", "name:pt": "Drogasil"}}, {"type": "Feature", "id": 4806360622, "geometry": {"type": "Point", "coordinates": [-34.8913688, -8.0379699]}, "properties": {"addr:street": "Avenida Jo\u00e3o de Barros", "amenity": "pharmacy", "name": "Big Ben", "name:pt": "Big Ben"}}, {"type": "Feature", "id": 4806396021, "geometry": {"type": "Point", "coordinates": [-34.9051254, -8.0341084]}, "properties": {"addr:street": "Rua Padre Roma", "amenity": "clinic", "name": "Posto de Sa\u00fade Albert Sabin", "name:pt": "Posto de Sa\u00fade Albert Sabin"}}, {"type": "Feature", "id": 4806509226, "geometry": {"type": "Point", "coordinates": [-34.9075882, -8.035695]}, "properties": {"addr:street": "Avenida Parnamirim", "amenity": "hospital", "name": "Hospital Maria Lucinda", "name:pt": "Hospital Maria Lucinda"}}, {"type": "Feature", "id": 4809863027, "geometry": {"type": "Point", "coordinates": [-34.8729419, -8.0634187]}, "properties": {"addr:street": "Avenida Marques de Olinda", "amenity": "pharmacy", "name": "Big Ben", "name:pt": "Big Ben"}}, {"type": "Feature", "id": 4835061721, "geometry": {"type": "Point", "coordinates": [-34.8927907, -8.0577509]}, "properties": {"addr:street": "Rua Gon\u00e7alves Mai\u00e1", "amenity": "clinic"}}]}