{"type": "FeatureCollection", "features": [{"type": "Feature", "id": 534280689, "geometry": {"type": "Point", "coordinates": [-34.895368, -8.051071]}, "properties": {"amenity": "fast_food", "cuisine": "burger", "name": "McDonald's"}}, {"type": "Feature", "id": 560397918, "geometry": {"type": "Point", "coordinates": [-34.904198, -8.0616569]}, "properties": {"amenity": "restaurant", "name": "Restaurante Novo Varanda"}}, {"type": "Feature", "id": 560407121, "geometry": {"type": "Point", "coordinates": [-34.8717817, -8.0613501]}, "properties": {"amenity": "fast_food", "name": "Lanchonete Gelattus"}}, {"type": "Feature", "id": 560413306, "geometry": {"type": "Point", "coordinates": [-34.8730119, -8.0586395]}, "properties": {"amenity": "restaurant"}}, {"type": "Feature", "id": 561522239, "geometry": {"type": "Point", "coordinates": [-34.9292118, -8.0649903]}, "properties": {"amenity": "restaurant", "name": "Bar e Restaurante do Paulo"}}, {"type": "Feature", "id": 561522241, "geometry": {"type": "Point", "coordinates": [-34.9296972, -8.0658476]}, "properties": {"amenity": "restaurant", "name": "Restaurante A\u00e7ucena"}}, {"type": "Feature", "id": 561522256, "geometry": {"type": "Point", "coordinates": [-34.9317697, -8.0655502]}, "properties": {"amenity": "restaurant", "name": "Restaurante, Banca, Locadora, Loja de roupas Mario e Sandra"}}, {"type": "Feature", "id": 561522257, "geometry": {"type": "Point", "coordinates": [-34.9294916, -8.0650435]}, "properties": {"amenity": "restaurant", "cuisine": "vegetarian", "name": "Restaurante Vegetariano"}}, {"type": "Feature", "id": 561522267, "geometry": {"type": "Point", "coordinates": [-34.920175, -8.053634]}, "properties": {"amenity": "pub", "name": "Sala de Reboco"}}, {"type": "Feature", "id": 561522274, "geometry": {"type": "Point", "coordinates": [-34.9023308, -8.0526227]}, "properties": {"amenity": "restaurant", "cuisine": "japanese", "name": "Osaka"}}, {"type": "Feature", "id": 561522279, "geometry": {"type": "Point", "coordinates": [-34.904133, -8.0586107]}, "properties": {"amenity": "bar", "name": "Clube Internacional do Recife"}}, {"type": "Feature", "id": 561900127, "geometry": {"type": "Point", "coordinates": [-34.9466502, -8.041782]}, "properties": {"amenity": "restaurant", "name": "Machadus Pizzaria e Self-Service"}}, {"type": "Feature", "id": 561900134, "geometry": {"type": "Point", "coordinates": [-34.9467875, -8.0423939]}, "properties": {"amenity": "restaurant", "name": "Padaria Cidade Universit\u00e1ria"}}, {"type": "Feature", "id": 561900193, "geometry": {"type": "Point", "coordinates": [-34.9438454, -8.0381372]}, "properties": {"addr:housenumber": "4301", "addr:street": "Avenida Caxang\u00e1", "amenity": "restaurant", "cuisine": "regional", "name": "Brazzettus", "website": "http://www.brazzettus.com.br/"}}, {"type": "Feature", "id": 562735962, "geometry": {"type": "Point", "coordinates": [-34.8983607, -8.059219]}, "properties": {"amenity": "restaurant", "name": "Churrascaria Spettus"}}, {"type": "Feature", "id": 564834411, "geometry": {"type": "Point", "coordinates": [-34.8801992, -8.0891804]}, "properties": {"amenity": "pub", "name": "Biruta Bar", "name:pt": "Biruta Bar"}}, {"type": "Feature", "id": 564994919, "geometry": {"type": "Point", "coordinates": [-34.8773823, -8.0678707]}, "properties": {"amenity": "fast_food", "name": "Gelattos"}}, {"type": "Feature", "id": 565781484, "geometry": {"type": "Point", "coordinates": [-34.9052087, -8.0529872]}, "properties": {"addr:housename": "Johns Sorvetes", "addr:housenumber": "88", "addr:street": "Rua Jos\u00e9 Os\u00f3rio", "amenity": "fast_food", "cuisine": "ice_cream", "name": "John's Sorvetes"}}, {"type": "Feature", "id": 565785335, "geometry": {"type": "Point", "coordinates": [-34.9288604, -8.0471354]}, "properties": {"amenity": "restaurant", "name": "Casa da Feijoada"}}, {"type": "Feature", "id": 565785341, "geometry": {"type": "Point", "coordinates": [-34.9443475, -8.0332958]}, "properties": {"amenity": "restaurant", "name": "Bar e Restaurante do Biu"}}, {"type": "Feature", "id": 662141005, "geometry": {"type": "Point", "coordinates": [-34.8732193, -8.0644928]}, "properties": {"addr:housenumber": "150", "addr:street": "Rua da Moeda", "amenity": "bar", "cuisine": "brazilian", "email": "casadamoedabar@yahoo.com.br", "name": "Casa da Moeda", "phone": "8132247095"}}, {"type": "Feature", "id": 662141010, "geometry": {"type": "Point", "coordinates": [-34.8731807, -8.0641687]}, "properties": {"amenity": "bar", "name": "Burburinho"}}, {"type": "Feature", "id": 1036684710, "geometry": {"type": "Point", "coordinates": [-34.8977656, -8.0512412]}, "properties": {"amenity": "bar", "name": "Bar Camale\u00e3o"}}, {"type": "Feature", "id": 1120604830, "geometry": {"type": "Point", "coordinates": [-34.9454566, -8.046298]}, "properties": {"amenity": "restaurant", "name": "restaurante do Daniel"}}, {"type": "Feature", "id": 1120607554, "geometry": {"type": "Point", "coordinates": [-34.951336, -8.0499524]}, "properties": {"amenity": "restaurant", "name": "restaurante self-service chef plat\u00e3o"}}, {"type": "Feature", "id": 1120610618, "geometry": {"type": "Point", "coordinates": [-34.9493605, -8.0584755]}, "properties": {"amenity": "fast_food", "description": "barraquinhas em frente IFPE"}}, {"type": "Feature", "id": 1120650147, "geometry": {"type": "Point", "coordinates": [-34.9029796, -8.128877]}, "properties": {"amenity": "bar", "name": "Entre amigos"}}, {"type": "Feature", "id": 1297480021, "geometry": {"type": "Point", "coordinates": [-34.9298153, -8.0661264]}, "properties": {"amenity": "restaurant", "cuisine": "regional", "name": "Restaurante do Gaudino"}}, {"type": "Feature", "id": 1961364239, "geometry": {"type": "Point", "coordinates": [-34.888081, -8.1042853]}, "properties": {"addr:street": "Avenida Conselheiro Aguiar", "amenity": "fast_food", "cuisine": "burger", "internet_access": "wlan", "name": "McDonalds", "opening_hours": "Mo-Su 10:00-22:00"}}, {"type": "Feature", "id": 2027116050, "geometry": {"type": "Point", "coordinates": [-34.8962604, -8.1147392]}, "properties": {"addr:city": "Recife", "addr:housenumber": "47", "addr:postcode": "51020-210", "addr:street": "Rua Francisco da Cunha", "addr:suburb": "Boa Viagem", "amenity": "restaurant", "cuisine": "sushi", "name": "Tay San", "takeaway": "yes"}}, {"type": "Feature", "id": 2040486437, "geometry": {"type": "Point", "coordinates": [-34.9076418, -8.0447279]}, "properties": {"amenity": "restaurant", "cuisine": "regional", "name": "Dobradinha do Gordo"}}, {"type": "Feature", "id": 2164082711, "geometry": {"type": "Point", "coordinates": [-34.9090619, -8.0554137]}, "properties": {"amenity": "fast_food", "cuisine": "regional", "name": "Gellatos"}}, {"type": "Feature", "id": 2164140457, "geometry": {"type": "Point", "coordinates": [-34.906056, -8.0579235]}, "properties": {"amenity": "restaurant", "cuisine": "fish", "name": "estrela do mar"}}, {"type": "Feature", "id": 2164140461, "geometry": {"type": "Point", "coordinates": [-34.8991144, -8.0448518]}, "properties": {"amenity": "pub"}}, {"type": "Feature", "id": 2164140466, "geometry": {"type": "Point", "coordinates": [-34.9126464, -8.0607185]}, "properties": {"amenity": "restaurant", "cuisine": "chicken"}}, {"type": "Feature", "id": 2164140467, "geometry": {"type": "Point", "coordinates": [-34.9065924, -8.0593469]}, "properties": {"amenity": "restaurant"}}, {"type": "Feature", "id": 2164140470, "geometry": {"type": "Point", "coordinates": [-34.899726, -8.0439488]}, "properties": {"amenity": "restaurant", "cuisine": "japanese", "name": "Go"}}, {"type": "Feature", "id": 2164140491, "geometry": {"type": "Point", "coordinates": [-34.9060935, -8.0471783]}, "properties": {"amenity": "restaurant", "cuisine": "japanese", "name": "Nirai"}}, {"type": "Feature", "id": 2164145628, "geometry": {"type": "Point", "coordinates": [-34.9102644, -8.0620053]}, "properties": {"amenity": "fast_food", "cuisine": "burger", "name": "Habib\"s"}}, {"type": "Feature", "id": 2166856634, "geometry": {"type": "Point", "coordinates": [-34.9290185, -8.0647273]}, "properties": {"amenity": "restaurant", "name": "restaurante dona teresinha"}}, {"type": "Feature", "id": 2247140689, "geometry": {"type": "Point", "coordinates": [-34.9445165, -8.0376806]}, "properties": {"addr:housename": "Churrascaria Boi & Brasa", "addr:housenumber": "4435", "addr:street": "Avenida Caxang\u00e1", "amenity": "restaurant", "cuisine": "steak_house", "name": "Boi & Brasa"}}, {"type": "Feature", "id": 2248566316, "geometry": {"type": "Point", "coordinates": [-34.9334734, -8.0356697]}, "properties": {"amenity": "restaurant", "name": "Boca Grill & Pizzaria"}}, {"type": "Feature", "id": 2272803390, "geometry": {"type": "Point", "coordinates": [-34.9182741, -8.1320696]}, "properties": {"amenity": "restaurant", "cuisine": "international", "name": "Bonaparte"}}, {"type": "Feature", "id": 2346861436, "geometry": {"type": "Point", "coordinates": [-34.8991645, -8.0439364]}, "properties": {"amenity": "ice_cream", "name": "sorveteria"}}, {"type": "Feature", "id": 2346861437, "geometry": {"type": "Point", "coordinates": [-34.8976801, -8.0434834]}, "properties": {"amenity": "restaurant", "cuisine": "international", "name": "Habib's"}}, {"type": "Feature", "id": 2346861441, "geometry": {"type": "Point", "coordinates": [-34.8888731, -8.0523527]}, "properties": {"addr:city": "Recife", "addr:street": "Rua Conde D'Eu", "amenity": "restaurant", "diet:vegan": "yes", "name": "Cantina Vegetariana"}}, {"type": "Feature", "id": 2348646201, "geometry": {"type": "Point", "coordinates": [-34.9071805, -8.055894]}, "properties": {"addr:city": "Recife", "addr:street": "Visconde de Albuquerque", "amenity": "restaurant", "cuisine": "burger", "name": "la\u00e7a burguer"}}, {"type": "Feature", "id": 2365763277, "geometry": {"type": "Point", "coordinates": [-34.9096133, -8.0618008]}, "properties": {"addr:city": "Recife", "addr:street": "Avenida Abdias de Carvalho", "amenity": "restaurant", "cuisine": "burger", "name": "subway"}}, {"type": "Feature", "id": 2380713970, "geometry": {"type": "Point", "coordinates": [-34.9101513, -8.0563424]}, "properties": {"addr:city": "Recife", "addr:housenumber": "72", "addr:street": "Avenida Caxang\u00e1", "amenity": "restaurant", "cuisine": "regional", "name": "self-service - lanchonete"}}, {"type": "Feature", "id": 2380713976, "geometry": {"type": "Point", "coordinates": [-34.910769, -8.0559449]}, "properties": {"addr:city": "Recife", "addr:housenumber": "176", "addr:street": "Avenida Caxang\u00e1", "amenity": "restaurant", "cuisine": "regional", "name": "self-service chiquita bacana"}}, {"type": "Feature", "id": 2393462463, "geometry": {"type": "Point", "coordinates": [-34.8743796, -8.0636086]}, "properties": {"amenity": "cafe", "name": "Delta Caf\u00e9"}}, {"type": "Feature", "id": 2393462465, "geometry": {"type": "Point", "coordinates": [-34.8734766, -8.0639741]}, "properties": {"addr:city": "Recife", "addr:street": "Vig\u00e1rio Ten\u00f3rio", "amenity": "restaurant", "cuisine": "japanese", "name": "restaurante self-service"}}, {"type": "Feature", "id": 2418401654, "geometry": {"type": "Point", "coordinates": [-34.9067551, -8.0514784]}, "properties": {"addr:street": "Avenida Visconde de Albuquerque", "amenity": "restaurant", "cuisine": "pizza"}}, {"type": "Feature", "id": 2426925260, "geometry": {"type": "Point", "coordinates": [-34.9029681, -8.1290597]}, "properties": {"amenity": "restaurant", "name": "o bode - entre amigos"}}, {"type": "Feature", "id": 2449723067, "geometry": {"type": "Point", "coordinates": [-34.9084718, -8.1424784]}, "properties": {"addr:city": "Recife", "addr:street": "Rua Jo\u00e3o Cardoso Ayres", "amenity": "restaurant", "name": "casa de festas pirueta"}}, {"type": "Feature", "id": 2463742593, "geometry": {"type": "Point", "coordinates": [-34.908344, -8.1528182]}, "properties": {"amenity": "pub", "name": "Quiosque 23"}}, {"type": "Feature", "id": 2511595800, "geometry": {"type": "Point", "coordinates": [-34.9460322, -8.0572352]}, "properties": {"addr:street": "Travessa Manuel Alves Deus Dar\u00e1", "amenity": "fast_food", "cuisine": "burger", "name": "GUI Burger"}}, {"type": "Feature", "id": 2532599028, "geometry": {"type": "Point", "coordinates": [-34.9081663, -8.0512813]}, "properties": {"amenity": "bar", "cuisine": "chinese", "name": "Tom Marrom"}}, {"type": "Feature", "id": 2532605640, "geometry": {"type": "Point", "coordinates": [-34.9087973, -8.0475547]}, "properties": {"amenity": "restaurant", "cuisine": "burger", "name": "Confraria Sanduba"}}, {"type": "Feature", "id": 2532636808, "geometry": {"type": "Point", "coordinates": [-34.9033982, -8.0416208]}, "properties": {"amenity": "restaurant", "cuisine": "pizza", "name": "Papa Capim"}}, {"type": "Feature", "id": 2556159994, "geometry": {"type": "Point", "coordinates": [-34.9100983, -8.0575868]}, "properties": {"amenity": "restaurant", "name": "temakeria"}}, {"type": "Feature", "id": 2557802354, "geometry": {"type": "Point", "coordinates": [-34.9479503, -8.0453291]}, "properties": {"amenity": "restaurant", "name": "Paid\u00e9gua"}}, {"type": "Feature", "id": 2557802355, "geometry": {"type": "Point", "coordinates": [-34.9476217, -8.0454978]}, "properties": {"amenity": "restaurant", "name": "Arri\u00e9gua"}}, {"type": "Feature", "id": 2557818607, "geometry": {"type": "Point", "coordinates": [-34.9577896, -8.0488965]}, "properties": {"amenity": "restaurant", "name": "Brazetus"}}, {"type": "Feature", "id": 2569595177, "geometry": {"type": "Point", "coordinates": [-34.8946941, -8.0472201]}, "properties": {"addr:street": "Rua da Hora", "amenity": "bar", "name": "o bode"}}, {"type": "Feature", "id": 2569595178, "geometry": {"type": "Point", "coordinates": [-34.893974, -8.0474644]}, "properties": {"addr:street": "Rua Venezuela", "amenity": "restaurant", "capacity": "30", "cuisine": "korean", "name": "burgogui"}}, {"type": "Feature", "id": 2569595179, "geometry": {"type": "Point", "coordinates": [-34.8948544, -8.0474843]}, "properties": {"addr:street": "Rua da Hora", "amenity": "restaurant", "capacity": "50", "cuisine": "italian", "name": "Famiglia Lucco"}}, {"type": "Feature", "id": 2578627448, "geometry": {"type": "Point", "coordinates": [-34.8995162, -8.0474592]}, "properties": {"amenity": "restaurant", "cuisine": "pizza", "name": "Atl\u00e2ntico"}}, {"type": "Feature", "id": 2597267807, "geometry": {"type": "Point", "coordinates": [-34.9188444, -8.0708224]}, "properties": {"amenity": "restaurant", "cuisine": "regional", "name": "bar do iran"}}, {"type": "Feature", "id": 2625158321, "geometry": {"type": "Point", "coordinates": [-34.9373909, -8.0882724]}, "properties": {"amenity": "restaurant", "cuisine": "regional"}}, {"type": "Feature", "id": 2632490244, "geometry": {"type": "Point", "coordinates": [-34.907197, -8.0325276]}, "properties": {"amenity": "bar", "name": "fiteiro"}}, {"type": "Feature", "id": 2638519621, "geometry": {"type": "Point", "coordinates": [-34.8968693, -8.0326206]}, "properties": {"addr:housenumber": "951", "addr:street": "Rua Amaro Coutinho", "amenity": "restaurant", "name": "China&Box"}}, {"type": "Feature", "id": 2660085283, "geometry": {"type": "Point", "coordinates": [-34.882267, -8.0915614]}, "properties": {"amenity": "restaurant", "cuisine": "regional", "name": "Boteco Maxine", "source": "survey"}}, {"type": "Feature", "id": 2660085306, "geometry": {"type": "Point", "coordinates": [-34.883123, -8.0911704]}, "properties": {"amenity": "fast_food", "cuisine": "Juices", "name": "Sukeria", "source": "survey"}}, {"type": "Feature", "id": 2902072080, "geometry": {"type": "Point", "coordinates": [-34.9327253, -8.0508322]}, "properties": {"amenity": "restaurant", "name": "Maloca"}}, {"type": "Feature", "id": 3106377727, "geometry": {"type": "Point", "coordinates": [-34.9118817, -8.0279396]}, "properties": {"amenity": "restaurant", "name": "Pizzaria Candellabro"}}, {"type": "Feature", "id": 3125258735, "geometry": {"type": "Point", "coordinates": [-34.9206293, -8.0208119]}, "properties": {"addr:housenumber": "6210", "addr:street": "Avenida Norte Miguel Arraes de Alencar", "amenity": "restaurant", "name": "Bar e Restaurante"}}, {"type": "Feature", "id": 3125258736, "geometry": {"type": "Point", "coordinates": [-34.9206149, -8.0207427]}, "properties": {"addr:housenumber": "6210", "addr:street": "Rua Desembargador Fonseca Galv\u00e3o", "amenity": "bar", "name": "Bares"}}, {"type": "Feature", "id": 3190396932, "geometry": {"type": "Point", "coordinates": [-34.9112268, -8.0241273]}, "properties": {"amenity": "restaurant", "name": "Rei da Picanha"}}, {"type": "Feature", "id": 3203334715, "geometry": {"type": "Point", "coordinates": [-34.9252947, -8.0366028]}, "properties": {"amenity": "restaurant", "name": "Donatto Restaurante"}}, {"type": "Feature", "id": 3395560132, "geometry": {"type": "Point", "coordinates": [-34.8715671, -8.0642408]}, "properties": {"addr:street": "Avenida Alfredo Lisboa", "amenity": "fast_food", "cuisine": "ice_cream", "delivery": "no", "name": "Frisabor", "takeaway": "yes", "website": "http://www.frisabor.com.br"}}, {"type": "Feature", "id": 3395574549, "geometry": {"type": "Point", "coordinates": [-34.8713043, -8.0637585]}, "properties": {"addr:city": "Recife", "addr:street": "Avenida Alfredo Lisboa", "addr:suburb": "Recife Antigo", "amenity": "restaurant", "cuisine": "regional", "name": "Seu Boteco", "note": "Local sem n\u00famero", "phone": "+55 81 34246920", "website": "http://www.seuboteco.com.br"}}, {"type": "Feature", "id": 3629526661, "geometry": {"type": "Point", "coordinates": [-34.9019027, -8.127167]}, "properties": {"addr:city": "Recife", "addr:housenumber": "332", "addr:postcode": "51020-390", "addr:street": "Avenida Fernando Sim\u00f5es Barbosa", "addr:suburb": "Boa Viagem", "amenity": "restaurant", "cuisine": "regional", "name": "Churrascaria Paju\u00e7ara", "phone": "+55 81 3465 1248", "takeaway": "yes"}}, {"type": "Feature", "id": 3629526662, "geometry": {"type": "Point", "coordinates": [-34.90223, -8.1268696]}, "properties": {"addr:city": "Recife", "addr:housenumber": "392", "addr:postcode": "51021-370", "addr:street": "Rua Dom Jos\u00e9 Lopes", "addr:suburb": "Boa Viagem", "amenity": "bar", "name": "MaNo's Bar", "phone": "+55 81 3327 6609"}}, {"type": "Feature", "id": 3629526663, "geometry": {"type": "Point", "coordinates": [-34.9021388, -8.1280671]}, "properties": {"addr:city": "Recife", "addr:housenumber": "1200", "addr:postcode": "51021-060", "addr:street": "Avenida Fernando Sim\u00f5es Barbosa", "addr:suburb": "Boa Viagem", "amenity": "restaurant", "cuisine": "regional", "name": "Parraxax\u00e1", "phone": "+55 81 3463 7874"}}, {"type": "Feature", "id": 3678295213, "geometry": {"type": "Point", "coordinates": [-34.9069647, -8.0544171]}, "properties": {"amenity": "fast_food", "cuisine": "ice_cream", "name": "Sorveteria Fri-Sabor"}}, {"type": "Feature", "id": 3678295214, "geometry": {"type": "Point", "coordinates": [-34.9069151, -8.0541987]}, "properties": {"amenity": "restaurant", "cuisine": "japanese"}}, {"type": "Feature", "id": 3717484112, "geometry": {"type": "Point", "coordinates": [-34.9162267, -8.0924257]}, "properties": {"amenity": "restaurant", "name": "Del\u00edcias da Lagoa"}}, {"type": "Feature", "id": 3717693351, "geometry": {"type": "Point", "coordinates": [-34.9133249, -8.0946382]}, "properties": {"amenity": "restaurant", "cuisine": "sushi", "name": "Max Koni"}}, {"type": "Feature", "id": 3717693352, "geometry": {"type": "Point", "coordinates": [-34.9133136, -8.0947956]}, "properties": {"amenity": "restaurant", "name": "O Lenhador", "outdoor_seating": "yes"}}, {"type": "Feature", "id": 3717693422, "geometry": {"type": "Point", "coordinates": [-34.9133204, -8.0945876]}, "properties": {"amenity": "fast_food", "name": "A\u00e7a\u00ed da Lagoa"}}, {"type": "Feature", "id": 3718523016, "geometry": {"type": "Point", "coordinates": [-34.9136047, -8.0960467]}, "properties": {"amenity": "restaurant", "name": "Lengo Tengo"}}, {"type": "Feature", "id": 3718523017, "geometry": {"type": "Point", "coordinates": [-34.9091199, -8.0928491]}, "properties": {"amenity": "restaurant", "name": "A Gauchinha"}}, {"type": "Feature", "id": 3718524739, "geometry": {"type": "Point", "coordinates": [-34.9136636, -8.0961226]}, "properties": {"amenity": "fast_food", "name": "Sr. Burguer"}}, {"type": "Feature", "id": 3720546985, "geometry": {"type": "Point", "coordinates": [-34.8741294, -8.0636366]}, "properties": {"amenity": "fast_food", "name": "Subway"}}, {"type": "Feature", "id": 3720568060, "geometry": {"type": "Point", "coordinates": [-34.9089679, -8.0912472]}, "properties": {"amenity": "restaurant"}}, {"type": "Feature", "id": 3728235357, "geometry": {"type": "Point", "coordinates": [-34.8850694, -8.0964667]}, "properties": {"amenity": "restaurant", "name": "Linda Lanches"}}, {"type": "Feature", "id": 3751045546, "geometry": {"type": "Point", "coordinates": [-34.9007174, -8.1308215]}, "properties": {"amenity": "restaurant", "name": "Chica Pitanga"}}, {"type": "Feature", "id": 3761426593, "geometry": {"type": "Point", "coordinates": [-34.8947294, -8.1103235]}, "properties": {"addr:housenumber": "336", "addr:street": "Rua Professor Eduardo Wanderley Filho", "amenity": "restaurant", "cuisine": "mexican", "diet:vegan": "yes", "diet:vegetarian": "yes", "name": "Escalante's Tex-Mex Food"}}, {"type": "Feature", "id": 3761426594, "geometry": {"type": "Point", "coordinates": [-34.8929605, -8.0452345]}, "properties": {"amenity": "restaurant", "diet:vegan": "yes", "diet:vegetarian": "yes", "name": "Papaya Verde", "website": "http://www.restaurantepapayaverde.com"}}, {"type": "Feature", "id": 3761426595, "geometry": {"type": "Point", "coordinates": [-34.9075028, -8.1352022]}, "properties": {"addr:housenumber": "259", "addr:street": "Rua Almirante Tamandar\u00e9", "amenity": "restaurant", "name": "Pizzeria Vesuvio", "phone": "+55 81 30976060"}}, {"type": "Feature", "id": 3772348321, "geometry": {"type": "Point", "coordinates": [-34.9074016, -8.0506891]}, "properties": {"amenity": "cafe", "name": "s\u00e3o br\u00e1z"}}, {"type": "Feature", "id": 3772348323, "geometry": {"type": "Point", "coordinates": [-34.9296157, -8.0656302]}, "properties": {"amenity": "restaurant"}}, {"type": "Feature", "id": 3855284894, "geometry": {"type": "Point", "coordinates": [-34.9141603, -8.0365295]}, "properties": {"amenity": "fast_food", "cuisine": "burger", "name": "McDonalds"}}, {"type": "Feature", "id": 3868316736, "geometry": {"type": "Point", "coordinates": [-34.9101178, -8.0603493]}, "properties": {"amenity": "restaurant", "name": "Portal da Picanha"}}, {"type": "Feature", "id": 4078704172, "geometry": {"type": "Point", "coordinates": [-34.8739203, -8.0651376]}, "properties": {"addr:city": "Recife", "addr:housenumber": "35", "addr:postcode": "50030-030", "addr:street": "Rua da Alf\u00e2ndega", "addr:suburb": "Recife Antigo", "amenity": "restaurant", "capacity": "100", "cuisine": "international", "delivery": "no", "name": "La Douane Bistrot", "opening_hours": "10:00-22:00", "payment:bitcoin": "yes", "smoking": "no", "takeaway": "no"}}, {"type": "Feature", "id": 4143749813, "geometry": {"type": "Point", "coordinates": [-34.9475828, -8.0453544]}, "properties": {"amenity": "restaurant", "name": "Subway", "takeaway": "yes"}}, {"type": "Feature", "id": 4143749814, "geometry": {"type": "Point", "coordinates": [-34.9475654, -8.0452442]}, "properties": {"amenity": "restaurant", "cuisine": "pizza", "name": "Pizzaria Deggustah", "takeaway": "yes"}}, {"type": "Feature", "id": 4149847315, "geometry": {"type": "Point", "coordinates": [-34.9471047, -8.042172]}, "properties": {"addr:street": "Rua General Polidoro", "amenity": "restaurant", "name": "Nova Kiss"}}, {"type": "Feature", "id": 4149847316, "geometry": {"type": "Point", "coordinates": [-34.9476376, -8.0452242]}, "properties": {"addr:street": "Rua General Polidoro", "amenity": "restaurant", "cuisine": "pizza", "name": "Pizzaria Degustah"}}, {"type": "Feature", "id": 4149847996, "geometry": {"type": "Point", "coordinates": [-34.947654, -8.0453033]}, "properties": {"amenity": "restaurant", "name": "Subway"}}, {"type": "Feature", "id": 4149848198, "geometry": {"type": "Point", "coordinates": [-34.9472457, -8.0424451]}, "properties": {"addr:street": "Rua Abatia", "amenity": "restaurant", "cuisine": "japanese;oriental;sushi;pizza", "internet_access": "wlan", "name": "Koni Temakeria"}}, {"type": "Feature", "id": 4234089764, "geometry": {"type": "Point", "coordinates": [-34.9060935, -8.0471783]}, "properties": {"addr:city": "Recife", "addr:housenumber": "291", "addr:street": "Rua Padre Anchieta", "addr:suburb": "Torre", "amenity": "restaurant", "cuisine": "japanese", "name": "Nippon"}}, {"type": "Feature", "id": 4236637805, "geometry": {"type": "Point", "coordinates": [-34.9202951, -8.0383416]}, "properties": {"amenity": "restaurant", "cuisine": "japanese", "name": "robata sushi wadamon"}}, {"type": "Feature", "id": 4262907467, "geometry": {"type": "Point", "coordinates": [-34.913259, -8.032298]}, "properties": {"addr:city": "Recife", "addr:housenumber": "323", "addr:postcode": "52060-210", "addr:street": "Estrada do Encanamento", "addr:suburb": "Parnamirim", "amenity": "cafe", "internet_access": "wlan", "name": "Castigliani Caf\u00e9s Especiais", "opening_hours": "Tu-Su 14:00-23:00", "smoking": "isolated"}}, {"type": "Feature", "id": 4264877811, "geometry": {"type": "Point", "coordinates": [-34.9132197, -8.0324535]}, "properties": {"amenity": "fast_food", "cuisine": "burger", "name": "Confraria do Sanduba"}}, {"type": "Feature", "id": 4264877812, "geometry": {"type": "Point", "coordinates": [-34.9132844, -8.0322933]}, "properties": {"amenity": "ice_cream", "name": "John's Sorvetes"}}, {"type": "Feature", "id": 4264877814, "geometry": {"type": "Point", "coordinates": [-34.9134418, -8.0322067]}, "properties": {"amenity": "restaurant", "cuisine": "crepes", "name": "Bercy Village"}}, {"type": "Feature", "id": 4264877815, "geometry": {"type": "Point", "coordinates": [-34.9137248, -8.0321748]}, "properties": {"amenity": "restaurant", "cuisine": "italian", "name": "Famiglia Lucco"}}, {"type": "Feature", "id": 4264877816, "geometry": {"type": "Point", "coordinates": [-34.9142854, -8.0322492]}, "properties": {"amenity": "restaurant", "cuisine": "arab", "name": "Snaubar"}}, {"type": "Feature", "id": 4310277811, "geometry": {"type": "Point", "coordinates": [-34.880107, -8.0577737]}, "properties": {"amenity": "bar", "name": "Bar Central"}}, {"type": "Feature", "id": 4331385252, "geometry": {"type": "Point", "coordinates": [-34.8950535, -8.0367167]}, "properties": {"addr:street": "Rua Doutor Jos\u00e9 Maria", "amenity": "restaurant", "name": "Chinadragon"}}, {"type": "Feature", "id": 4339135770, "geometry": {"type": "Point", "coordinates": [-34.8871799, -8.0396444]}, "properties": {"addr:city": "Recife", "amenity": "restaurant", "name": "Pra\u00e7a da Picanha"}}, {"type": "Feature", "id": 4343749595, "geometry": {"type": "Point", "coordinates": [-34.9131408, -8.0257467]}, "properties": {"addr:street": "Rua da Harmonia", "amenity": "restaurant", "name": "Quintal Gourmet"}}, {"type": "Feature", "id": 4384304910, "geometry": {"type": "Point", "coordinates": [-34.8717434, -8.0645934]}, "properties": {"amenity": "restaurant", "name:en": "Downtown Pier Gastrobar"}}, {"type": "Feature", "id": 4384305794, "geometry": {"type": "Point", "coordinates": [-34.8733746, -8.0645256]}, "properties": {"amenity": "restaurant", "cuisine": "brazilian", "name:en": "Bodega de Veio"}}, {"type": "Feature", "id": 4384306789, "geometry": {"type": "Point", "coordinates": [-34.8722658, -8.0629631]}, "properties": {"amenity": "cafe", "cuisine": "brazilian;coffee_shop;sandwich", "name:en": "Sansa Sanduiches & Saladas"}}, {"type": "Feature", "id": 4384900789, "geometry": {"type": "Point", "coordinates": [-34.872054, -8.0651407]}, "properties": {"amenity": "restaurant", "name:en": "Devassa"}}, {"type": "Feature", "id": 4384900790, "geometry": {"type": "Point", "coordinates": [-34.8715103, -8.0641753]}, "properties": {"amenity": "restaurant", "cuisine": "japanese", "name:en": "Love Japan"}}, {"type": "Feature", "id": 4384900889, "geometry": {"type": "Point", "coordinates": [-34.8713863, -8.0639504]}, "properties": {"amenity": "cafe", "cuisine": "coffee_shop;cake", "name:en": "S\u00e3o Braz"}}, {"type": "Feature", "id": 4385212093, "geometry": {"type": "Point", "coordinates": [-34.8710706, -8.0616138]}, "properties": {"amenity": "restaurant", "cuisine": "brazilian", "name:en": "Fiteiro Temos Comida"}}, {"type": "Feature", "id": 4385212094, "geometry": {"type": "Point", "coordinates": [-34.8727121, -8.0642767]}, "properties": {"addr:street": "Rua Tomazina", "amenity": "restaurant", "cuisine": "brazilian", "name:en": "Bar do Raina"}}, {"type": "Feature", "id": 4385252089, "geometry": {"type": "Point", "coordinates": [-34.8712079, -8.0615275]}, "properties": {"amenity": "restaurant", "cuisine": "brazilian;seafood", "name:en": "Arsenal do Camar\u00e3o"}}, {"type": "Feature", "id": 4386345791, "geometry": {"type": "Point", "coordinates": [-34.8874163, -8.102354]}, "properties": {"amenity": "restaurant", "cuisine": "brazilian;coffee_shop", "name:en": "Bom Apetite Bistro"}}, {"type": "Feature", "id": 4386366189, "geometry": {"type": "Point", "coordinates": [-34.8857838, -8.0992196]}, "properties": {"addr:housenumber": "135", "addr:street": "Rua Tom\u00e9 Gibson", "amenity": "restaurant", "cuisine": "brazilian;chicken;barbecue", "name:en": "Galeto Pekin", "phone": "8133269178"}}, {"type": "Feature", "id": 4434306251, "geometry": {"type": "Point", "coordinates": [-34.9324389, -8.062495]}, "properties": {"amenity": "restaurant", "name": "IOKI"}}, {"type": "Feature", "id": 4461216189, "geometry": {"type": "Point", "coordinates": [-34.9004266, -8.1283627]}, "properties": {"amenity": "bar", "internet_access": "wlan", "name": "Ponto do A\u00e7a\u00ed", "name:en": "A\u00e7a\u00ed bar", "name:pt": "Ponto do A\u00e7a\u00ed"}}, {"type": "Feature", "id": 4474021953, "geometry": {"type": "Point", "coordinates": [-34.9139711, -8.1399985]}, "properties": {"addr:city": "Recife", "amenity": "restaurant", "cuisine": "regional", "name": "Feijoada do Leopoldo"}}, {"type": "Feature", "id": 4474021954, "geometry": {"type": "Point", "coordinates": [-34.913078, -8.1401313]}, "properties": {"addr:city": "Recife", "amenity": "restaurant", "cuisine": "regional", "name": "Dona Gula"}}, {"type": "Feature", "id": 4474021955, "geometry": {"type": "Point", "coordinates": [-34.9138022, -8.1390586]}, "properties": {"addr:city": "Recife", "addr:suburb": "Set\u00fabal", "amenity": "restaurant", "cuisine": "regional", "name": "Galeteria Set\u00fabal"}}, {"type": "Feature", "id": 4475314432, "geometry": {"type": "Point", "coordinates": [-34.925237, -8.0884151]}, "properties": {"addr:city": "Recife", "addr:suburb": "Jiqui\u00e1", "amenity": "fast_food", "name": "Gospel Lanches"}}, {"type": "Feature", "id": 4531083989, "geometry": {"type": "Point", "coordinates": [-34.9036254, -8.1267405]}, "properties": {"addr:housenumber": "2237", "addr:postcode": "51021190", "addr:street": "Avenida Visconde de Jequitinhonha", "amenity": "restaurant", "cuisine": "brazilian", "email": "caldissimogrill@caldissimogrill.com.br", "name": "Cald\u00edssimo Grill", "opening_hours": "Tu-Su 11:30-01:00", "phone": "81 33253549", "website": "http://www.caldissimogrill.com.br/"}}, {"type": "Feature", "id": 4588163491, "geometry": {"type": "Point", "coordinates": [-34.8928038, -8.0439492]}, "properties": {"addr:housenumber": "+558135273377", "addr:street": "Rua da Hora", "amenity": "restaurant", "cuisine": "japanese", "name": "ZEN COMIDA JAPONESA", "opening_hours": "Mo-Fr 18:00-23:00; Sa 18:00-00:00; Su 11:00-23:30"}}, {"type": "Feature", "id": 4602763399, "geometry": {"type": "Point", "coordinates": [-34.9206495, -8.1410146]}, "properties": {"addr:city": "Recife", "addr:housenumber": "31q", "addr:postcode": "51250-000", "addr:street": "Avenida Centen\u00e1rio Alberto Santos Dumont", "addr:suburb": "Jord\u00e3o", "amenity": "restaurant", "capacity": "100", "cuisine": "regional", "name": "Edmilson da Carne de Sol", "opening_hours": "13:00-17:00"}}, {"type": "Feature", "id": 4618220890, "geometry": {"type": "Point", "coordinates": [-34.8960379, -8.0627405]}, "properties": {"addr:housenumber": "515", "addr:postcode": "50070-270", "addr:street": "Rua General Joaquim Ign\u00e1cio", "amenity": "restaurant", "name": "Skillus Classic", "name:pt": "Skillus Classic", "opening_hours": "Mo-Su 11:30-23:00"}}, {"type": "Feature", "id": 4636541413, "geometry": {"type": "Point", "coordinates": [-34.910829, -8.0918839]}, "properties": {"amenity": "restaurant"}}, {"type": "Feature", "id": 4689163191, "geometry": {"type": "Point", "coordinates": [-34.901439, -8.0548647]}, "properties": {"amenity": "restaurant", "name": "Portal do Derby", "name:pt": "Portal do Derby"}}, {"type": "Feature", "id": 4710238447, "geometry": {"type": "Point", "coordinates": [-34.9068334, -8.1268678]}, "properties": {"addr:city": "Recife", "addr:street": "Rua Coronel An\u00edzio Rodrigues Coelho", "addr:suburb": "Boa Viagem", "amenity": "restaurant", "name": "Escrit\u00f3rio do Guaiamum", "outdoor_seating": "no"}}, {"type": "Feature", "id": 4731139808, "geometry": {"type": "Point", "coordinates": [-34.908471, -8.12702]}, "properties": {"amenity": "restaurant", "cuisine": "regional", "name": "Reuni\u00e3o - Frutos do Mar"}}, {"type": "Feature", "id": 4741372425, "geometry": {"type": "Point", "coordinates": [-34.903226, -8.0278903]}, "properties": {"addr:street": "Rua Joseph Turton", "amenity": "restaurant", "cuisine": "sushi", "name": "Oxentemaki", "name:pt": "Oxentemaki"}}, {"type": "Feature", "id": 4741392321, "geometry": {"type": "Point", "coordinates": [-34.892892, -8.0375236]}, "properties": {"addr:street": "Rua Doutor Jos\u00e9 Maria", "amenity": "restaurant", "cuisine": "seafood;asian", "name": "Tepan", "name:en": "Tepan", "name:pt": "Tepan"}}, {"type": "Feature", "id": 4741392421, "geometry": {"type": "Point", "coordinates": [-34.8914827, -8.0423314]}, "properties": {"addr:street": "Rua da Hora", "amenity": "restaurant", "cuisine": "steak_house;pasta;barbecue;pizza", "name": "Palermo Pizzaria", "name:pt": "Palermo Pizzaria"}}, {"type": "Feature", "id": 4751509522, "geometry": {"type": "Point", "coordinates": [-34.9276045, -8.1007104]}, "properties": {"addr:housenumber": "1005", "addr:street": "Rua dos Prazeres", "amenity": "pub", "name": "Bar do Edilson"}}, {"type": "Feature", "id": 4752703924, "geometry": {"type": "Point", "coordinates": [-34.8985232, -8.0353118]}, "properties": {"addr:street": "Rua Regueira Costa", "amenity": "fast_food", "cuisine": "burger;sandwich", "name": "Zoo Burguer"}}, {"type": "Feature", "id": 4756923324, "geometry": {"type": "Point", "coordinates": [-34.8715012, -8.0614007]}, "properties": {"amenity": "cafe", "name:en": "Malakoff"}}, {"type": "Feature", "id": 4771119427, "geometry": {"type": "Point", "coordinates": [-34.9007091, -8.1274563]}, "properties": {"amenity": "restaurant", "name": "Tasca", "name:pt": "Tasca"}}, {"type": "Feature", "id": 4800239521, "geometry": {"type": "Point", "coordinates": [-34.8993026, -8.0353521]}, "properties": {"addr:street": "Rua Doutor Jos\u00e9 Maria", "amenity": "restaurant", "cuisine": "steak_house;regional;grill;brazilian;barbecue", "name": "Portal da Picanha", "name:pt": "Portal da Picanha"}}, {"type": "Feature", "id": 4802799923, "geometry": {"type": "Point", "coordinates": [-34.8936109, -8.0349445]}, "properties": {"addr:street": "Rua Cear\u00e1", "amenity": "restaurant", "cuisine": "brazilian;regional;barbecue", "name": "Bar do Tonh\u00e3o", "name:pt": "Bar do Tonh\u00e3o"}}, {"type": "Feature", "id": 4802799929, "geometry": {"type": "Point", "coordinates": [-34.9015991, -8.0369594]}, "properties": {"addr:street": "Avenida Conselheiro Rosa e Silva", "amenity": "restaurant", "cuisine": "sandwich;tea;vegetarian", "name": "Ponto do a\u00e7a\u00ed", "name:pt": "Ponto do a\u00e7a\u00ed"}}, {"type": "Feature", "id": 4806498422, "geometry": {"type": "Point", "coordinates": [-34.8973673, -8.056167]}, "properties": {"addr:street": "Avenida Agamenon Magalh\u00e3es-Pista local", "amenity": "fast_food", "cuisine": "burger", "name": "McDonald's", "name:pt": "McDonald's"}}, {"type": "Feature", "id": 4806498423, "geometry": {"type": "Point", "coordinates": [-34.8990574, -8.0575829]}, "properties": {"addr:street": "Pra\u00e7a do Derby", "amenity": "fast_food", "cuisine": "sandwich", "name": "Subway", "name:pt": "Subway"}}]}