{"type": "FeatureCollection", "features": [{"type": "Feature", "id": 560398646, "geometry": {"type": "Point", "coordinates": [-34.8987418, -8.0620287]}, "properties": {"amenity": "school", "name": "col\u00e9gio GGE"}}, {"type": "Feature", "id": 560404588, "geometry": {"type": "Point", "coordinates": [-34.9034684, -8.0608496]}, "properties": {"amenity": "university", "name": "FCAP - UPE"}}, {"type": "Feature", "id": 560404598, "geometry": {"type": "Point", "coordinates": [-34.9034427, -8.0594984]}, "properties": {"amenity": "university", "name": "Escola Polit\u00e9cnica - UPE"}}, {"type": "Feature", "id": 560628925, "geometry": {"type": "Point", "coordinates": [-34.9282542, -8.0477011]}, "properties": {"amenity": "school", "name": "Col\u00e9gio Sancarlos"}}, {"type": "Feature", "id": 560628928, "geometry": {"type": "Point", "coordinates": [-34.9318144, -8.0587322]}, "properties": {"amenity": "school"}}, {"type": "Feature", "id": 561453321, "geometry": {"type": "Point", "coordinates": [-34.896225, -8.0542374]}, "properties": {"amenity": "school", "name": "Col\u00e9gio Contato"}}, {"type": "Feature", "id": 561453328, "geometry": {"type": "Point", "coordinates": [-34.8956113, -8.0530168]}, "properties": {"amenity": "school", "name": "Col\u00e9gio Americano Batista"}}, {"type": "Feature", "id": 561522263, "geometry": {"type": "Point", "coordinates": [-34.9198574, -8.0541609]}, "properties": {"amenity": "school", "name": "Col\u00e9gio Souza Le\u00e3o"}}, {"type": "Feature", "id": 561522277, "geometry": {"type": "Point", "coordinates": [-34.8992066, -8.0593959]}, "properties": {"amenity": "school", "name": "Col\u00e9gio da Policia militar"}}, {"type": "Feature", "id": 561522285, "geometry": {"type": "Point", "coordinates": [-34.9034123, -8.0523763]}, "properties": {"amenity": "college", "name": "Faculdade maur\u00edcio de Nassau"}}, {"type": "Feature", "id": 562820801, "geometry": {"type": "Point", "coordinates": [-34.8971333, -8.06176]}, "properties": {"amenity": "school", "name": "Instituto Cervantes"}}, {"type": "Feature", "id": 564865655, "geometry": {"type": "Point", "coordinates": [-34.9070298, -8.1363567]}, "properties": {"amenity": "school", "name": "Escola Americana"}}, {"type": "Feature", "id": 568208493, "geometry": {"type": "Point", "coordinates": [-34.9017546, -8.0590755]}, "properties": {"amenity": "school", "name": "Col\u00e9gio GGE (1\u00ba ao 9\u00ba ano)"}}, {"type": "Feature", "id": 1120600116, "geometry": {"type": "Point", "coordinates": [-34.944962, -8.0401235]}, "properties": {"amenity": "school", "name": "Escola Pontual"}}, {"type": "Feature", "id": 1493720825, "geometry": {"type": "Point", "coordinates": [-34.9094701, -8.0585017]}, "properties": {"amenity": "school", "name": "curso de ingl\u00eas e espanhol britanic"}}, {"type": "Feature", "id": 1712142844, "geometry": {"type": "Point", "coordinates": [-34.905438, -8.0495694]}, "properties": {"addr:housenumber": "121", "addr:street": "Rua Dem\u00f3stenes de Olinda", "amenity": "school", "name": "Col\u00e9gio Equipe", "source": "http://www.equipe-recife.com.br/"}}, {"type": "Feature", "id": 1748829998, "geometry": {"type": "Point", "coordinates": [-34.918001, -8.0495017]}, "properties": {"amenity": "school", "name": "Centro Educacional Lubienska", "wheelchair": "yes"}}, {"type": "Feature", "id": 2115116373, "geometry": {"type": "Point", "coordinates": [-34.9285626, -8.0280104]}, "properties": {"amenity": "school", "name": "Escola de refer\u00eancia Silva Jardim"}}, {"type": "Feature", "id": 2247140697, "geometry": {"type": "Point", "coordinates": [-34.9441223, -8.0393134]}, "properties": {"amenity": "school", "name": "Col\u00e9gio Conhecer"}}, {"type": "Feature", "id": 2247140706, "geometry": {"type": "Point", "coordinates": [-34.9407664, -8.0375054]}, "properties": {"amenity": "school", "name": "Col\u00e9gio Desafio"}}, {"type": "Feature", "id": 2248402201, "geometry": {"type": "Point", "coordinates": [-34.9430041, -8.0373325]}, "properties": {"amenity": "school", "name": "Col\u00e9gio Desafio"}}, {"type": "Feature", "id": 2346861427, "geometry": {"type": "Point", "coordinates": [-34.9088746, -8.0553579]}, "properties": {"amenity": "school", "building": "yes", "name": "col\u00e9gio ideia"}}, {"type": "Feature", "id": 2352867095, "geometry": {"type": "Point", "coordinates": [-34.9275498, -8.0603362]}, "properties": {"amenity": "school", "name": "escola planeta crian\u00e7a"}}, {"type": "Feature", "id": 2426925250, "geometry": {"type": "Point", "coordinates": [-34.9073911, -8.128696]}, "properties": {"addr:street": "Rua Marqu\u00eas de Valen\u00e7a", "amenity": "school", "name": "Escola T\u00e9cnica Estadual C\u00edcero Dias"}}, {"type": "Feature", "id": 2532644272, "geometry": {"type": "Point", "coordinates": [-34.9005397, -8.0491336]}, "properties": {"amenity": "school", "name": "Escola Encontro"}}, {"type": "Feature", "id": 2532647104, "geometry": {"type": "Point", "coordinates": [-34.9109849, -8.0427305]}, "properties": {"amenity": "school", "name": "Escola Despertar"}}, {"type": "Feature", "id": 2532648397, "geometry": {"type": "Point", "coordinates": [-34.9103263, -8.0451293]}, "properties": {"amenity": "school", "name": "Escola Despertar (ber\u00e7\u00e1rio)"}}, {"type": "Feature", "id": 2560639595, "geometry": {"type": "Point", "coordinates": [-34.9505606, -8.0160964]}, "properties": {"addr:city": "Recife", "addr:housename": "Universidade Federal Rural de PE - UFRPE", "addr:postcode": "52171900", "addr:street": "Rua Manuel de Medeiros, s/n, Dois Irm\u00e3o", "amenity": "university", "name": "UFRPE", "wheelchair": "no"}}, {"type": "Feature", "id": 2584380283, "geometry": {"type": "Point", "coordinates": [-34.9020743, -8.0503434]}, "properties": {"addr:city": "Recife", "addr:street": "Rua das Gra\u00e7as", "amenity": "school", "name": "Instituto Capibaribe", "phone": "55 81 32214950"}}, {"type": "Feature", "id": 2634659537, "geometry": {"type": "Point", "coordinates": [-34.8955142, -8.0312499]}, "properties": {"amenity": "school", "name": "Col\u00e9gio Fazer Crescer"}}, {"type": "Feature", "id": 2667523974, "geometry": {"type": "Point", "coordinates": [-34.886336, -8.052618]}, "properties": {"amenity": "school", "name": "SENAC"}}, {"type": "Feature", "id": 3106377714, "geometry": {"type": "Point", "coordinates": [-34.9018131, -8.0369601]}, "properties": {"amenity": "school", "name": "Col\u00e9gio Nossa Senhora de Lourdes"}}, {"type": "Feature", "id": 3106377725, "geometry": {"type": "Point", "coordinates": [-34.9073323, -8.0298525]}, "properties": {"amenity": "school", "name": "Col\u00e9gio Santa Catarina"}}, {"type": "Feature", "id": 3178629161, "geometry": {"type": "Point", "coordinates": [-34.8982965, -8.1178199]}, "properties": {"amenity": "school", "name": "Bem-me-quer"}}, {"type": "Feature", "id": 3717484094, "geometry": {"type": "Point", "coordinates": [-34.912313, -8.0953527]}, "properties": {"addr:housenumber": "53", "addr:postcode": "51170-270", "addr:street": "Rua Agricultor Jo\u00e3o Bezerra de Oliveira", "amenity": "school", "name": "Escola Anita Garibaldi", "website": "http://www.escolaanitagaribaldi.com.br/"}}, {"type": "Feature", "id": 3718586631, "geometry": {"type": "Point", "coordinates": [-34.9090303, -8.0922135]}, "properties": {"amenity": "college", "name": "Grau T\u00e9cnico"}}, {"type": "Feature", "id": 4331385251, "geometry": {"type": "Point", "coordinates": [-34.8925459, -8.0392913]}, "properties": {"addr:street": "Avenida Jo\u00e3o de Barros", "amenity": "school", "name": "ETEPAM - Escola T\u00e9cnica Professor Agamenon Magalh\u00e3es"}}, {"type": "Feature", "id": 4442276766, "geometry": {"type": "Point", "coordinates": [-34.907253, -8.0219283]}, "properties": {"amenity": "school", "name": "Escola Estadual Maria Tereza Corr\u00eaia"}}, {"type": "Feature", "id": 4474021956, "geometry": {"type": "Point", "coordinates": [-34.9151835, -8.1438113]}, "properties": {"addr:city": "Recife", "addr:suburb": "Set\u00fabal", "amenity": "school", "name": "Col\u00e9gio Eldorado"}}, {"type": "Feature", "id": 4693866795, "geometry": {"type": "Point", "coordinates": [-34.901686, -8.0347394]}, "properties": {"addr:city": "Recife", "addr:suburb": "Jaqueira", "amenity": "school", "name": "Col\u00e9gio Boa Viagem- Jaqueira"}}, {"type": "Feature", "id": 4710255113, "geometry": {"type": "Point", "coordinates": [-34.9068131, -8.1269805]}, "properties": {"addr:city": "Recife", "addr:street": "Rua Dom Jos\u00e9 Lopes", "addr:suburb": "Boa Viagem", "amenity": "school"}}, {"type": "Feature", "id": 4741372428, "geometry": {"type": "Point", "coordinates": [-34.8999667, -8.0384275]}, "properties": {"addr:street": "Avenida Conselheiro Rosa e Silva", "amenity": "school", "name": "ABA - Associa\u00e7\u00e3o Brasil Am\u00e9rica", "name:pt": "ABA - Associa\u00e7\u00e3o Brasil Am\u00e9rica"}}, {"type": "Feature", "id": 4741392322, "geometry": {"type": "Point", "coordinates": [-34.8996953, -8.0381467]}, "properties": {"addr:street": "Avenida Conselheiro Rosa e Silva", "amenity": "school", "name": "Maple Bear", "name:pt": "Maple Bear"}}, {"type": "Feature", "id": 4774600341, "geometry": {"type": "Point", "coordinates": [-34.9605257, -8.0484366]}, "properties": {"addr:housenumber": "92", "addr:street": "Rua Mendes Martins", "amenity": "school", "name": "Escola Arco-Iris da V\u00e1rzea", "phone": "00558132720150"}}]}