{"type": "FeatureCollection", "features": [{"type": "Feature", "id": 560406019, "geometry": {"type": "Point", "coordinates": [-34.8819077, -8.0621753]}, "properties": {"amenity": "cinema", "name": "Cinema S\u00e3o Lu\u00eds"}}, {"type": "Feature", "id": 561522275, "geometry": {"type": "Point", "coordinates": [-34.8999447, -8.0594384]}, "properties": {"amenity": "cinema", "name": "Cinema da Funda\u00e7\u00e3o"}}, {"type": "Feature", "id": 562820803, "geometry": {"type": "Point", "coordinates": [-34.8851954, -8.0617621]}, "properties": {"amenity": "theatre", "name": "teatro do parque"}}, {"type": "Feature", "id": 564865669, "geometry": {"type": "Point", "coordinates": [-34.9053819, -8.1191675]}, "properties": {"amenity": "cinema"}}, {"type": "Feature", "id": 957120589, "geometry": {"type": "Point", "coordinates": [-34.8938157, -8.1132894]}, "properties": {"addr:city": "Recife", "addr:country": "BR", "addr:housenumber": "202", "addr:postcode": "51020-190", "addr:street": "Rua Tenente Joao Cicero", "amenity": "nightclub", "name": "Arcadia recep\u00e7\u00f5es"}}, {"type": "Feature", "id": 1418999118, "geometry": {"type": "Point", "coordinates": [-34.8856976, -8.0623997]}, "properties": {"amenity": "fountain"}}, {"type": "Feature", "id": 1419741868, "geometry": {"type": "Point", "coordinates": [-34.8813304, -8.0644971]}, "properties": {"amenity": "fountain"}}, {"type": "Feature", "id": 1467731373, "geometry": {"type": "Point", "coordinates": [-34.8971312, -8.0504241]}, "properties": {"amenity": "fountain"}}, {"type": "Feature", "id": 1712628747, "geometry": {"type": "Point", "coordinates": [-34.9311378, -8.0658605]}, "properties": {"leisure": "sports_centre", "name": "Academia da Chesf", "sport": "gymnastics"}}, {"type": "Feature", "id": 2089132408, "geometry": {"type": "Point", "coordinates": [-34.9253649, -8.0493015]}, "properties": {"leisure": "playground"}}, {"type": "Feature", "id": 2090342126, "geometry": {"type": "Point", "coordinates": [-34.938118, -8.0423073]}, "properties": {"leisure": "playground"}}, {"type": "Feature", "id": 2096600854, "geometry": {"type": "Point", "coordinates": [-34.9348058, -8.0396589]}, "properties": {"leisure": "playground"}}, {"type": "Feature", "id": 2131472797, "geometry": {"type": "Point", "coordinates": [-34.9394317, -8.0189127]}, "properties": {"amenity": "fountain"}}, {"type": "Feature", "id": 2320268477, "geometry": {"type": "Point", "coordinates": [-34.9040703, -8.1418692]}, "properties": {"amenity": "theatre", "name": "Teatro Luiz Mendon\u00e7a"}}, {"type": "Feature", "id": 2380713968, "geometry": {"type": "Point", "coordinates": [-34.909643, -8.0566146]}, "properties": {"leisure": "pitch", "name": "academia", "sport": "taekwondo"}}, {"type": "Feature", "id": 2633725551, "geometry": {"type": "Point", "coordinates": [-34.9080741, -8.0497644]}, "properties": {"addr:city": "Recife", "addr:housenumber": "43", "addr:postcode": "50710-435", "addr:street": "Rua Jos\u00e9 Bonif\u00e1cio", "amenity": "studio", "name": "Est\u00fadio Skill", "studio": "audio"}}, {"type": "Feature", "id": 3125296536, "geometry": {"type": "Point", "coordinates": [-34.9057851, -8.0258552]}, "properties": {"access": "private", "leisure": "swimming_pool", "name": "SESC Casa Amarela"}}, {"type": "Feature", "id": 3363345045, "geometry": {"type": "Point", "coordinates": [-34.9144527, -8.0230915]}, "properties": {"description": "Pra\u00e7a do Trabalho", "internet_access": "wlan", "internet_access:fee": "no", "internet_access:operator": "Conecta Recife", "internet_access:ssid": "CONECTARECIFE", "leisure": "park", "name": "Pra\u00e7a do Trabalho", "source": "Dados Abertos Prefeitura do Recife - http://goo.gl/aAluVE", "source:date": "2015/02/20"}}, {"type": "Feature", "id": 3718523015, "geometry": {"type": "Point", "coordinates": [-34.9170309, -8.0955136]}, "properties": {"leisure": "sports_centre", "name": "Club Fitness"}}, {"type": "Feature", "id": 3718586635, "geometry": {"type": "Point", "coordinates": [-34.9136138, -8.0923985]}, "properties": {"leisure": "fitness_station"}}, {"type": "Feature", "id": 3718586709, "geometry": {"type": "Point", "coordinates": [-34.9150698, -8.0965888]}, "properties": {"leisure": "fitness_station"}}, {"type": "Feature", "id": 3807599781, "geometry": {"type": "Point", "coordinates": [-34.9133118, -8.0305098]}, "properties": {"amenity": "theatre", "type": "amphi"}}, {"type": "Feature", "id": 3994279878, "geometry": {"type": "Point", "coordinates": [-34.8712692, -8.0610227]}, "properties": {"amenity": "fountain"}}, {"type": "Feature", "id": 4238529685, "geometry": {"type": "Point", "coordinates": [-34.9551681, -8.1173703]}, "properties": {"addr:city": "Recife", "addr:postcode": "51340240", "addr:street": "Avenida Santa F\u00e9", "addr:suburb": "Cohab", "leisure": "common", "name": "Associa\u00e7\u00e3o de Moradores da UR-02 Ibura"}}, {"type": "Feature", "id": 4346610949, "geometry": {"type": "Point", "coordinates": [-34.898899, -8.1252016]}, "properties": {"leisure": "fitness_centre", "name": "Smart Fit - Conselheiro Aguiar II", "opening_hours": "Mo-Fr 05:30-23:00;Sa 08:00-14:00;Su 09:00-15:00"}}, {"type": "Feature", "id": 4346612669, "geometry": {"type": "Point", "coordinates": [-34.9036282, -8.1423725]}, "properties": {"leisure": "fitness_station"}}, {"type": "Feature", "id": 4346612670, "geometry": {"type": "Point", "coordinates": [-34.9025002, -8.1391562]}, "properties": {"leisure": "fitness_station"}}, {"type": "Feature", "id": 4346612672, "geometry": {"type": "Point", "coordinates": [-34.9013215, -8.1355374]}, "properties": {"leisure": "fitness_station"}}, {"type": "Feature", "id": 4346612673, "geometry": {"type": "Point", "coordinates": [-34.9004189, -8.1334547]}, "properties": {"leisure": "fitness_station"}}, {"type": "Feature", "id": 4448618257, "geometry": {"type": "Point", "coordinates": [-34.8964739, -8.0497658]}, "properties": {"addr:street": "Avenida Conselheiro Rosa e Silva", "leisure": "sports_centre", "name": "Clube Portugu\u00eas"}}, {"type": "Feature", "id": 4454286775, "geometry": {"type": "Point", "coordinates": [-34.9266778, -8.0470631]}, "properties": {"leisure": "park", "name": "Parque de Exposi\u00e7\u00f5es do Cordeiro"}}, {"type": "Feature", "id": 4652746961, "geometry": {"type": "Point", "coordinates": [-34.9078819, -8.1266136]}, "properties": {"leisure": "pitch", "lit": "yes", "name": "Campo de Futebol da Playside.", "sport": "soccer"}}, {"type": "Feature", "id": 4656442304, "geometry": {"type": "Point", "coordinates": [-34.9021439, -8.125111]}, "properties": {"leisure": "fitness_centre", "name": "Academia HI"}}, {"type": "Feature", "id": 4673741772, "geometry": {"type": "Point", "coordinates": [-34.9275719, -8.0671049]}, "properties": {"leisure": "park", "name": "Pra\u00e7a de Eventos de San Martin"}}, {"type": "Feature", "id": 4673744729, "geometry": {"type": "Point", "coordinates": [-34.9321801, -8.06511]}, "properties": {"leisure": "park", "name": "Pra\u00e7a da Amizade"}}, {"type": "Feature", "id": 4673753913, "geometry": {"type": "Point", "coordinates": [-34.9278854, -8.0728926]}, "properties": {"leisure": "park", "name": "Pra\u00e7a da Periquita"}}, {"type": "Feature", "id": 4710183673, "geometry": {"type": "Point", "coordinates": [-34.9036542, -8.1288815]}, "properties": {"addr:city": "Recife", "addr:street": "Rua Marqu\u00eas de Valen\u00e7a", "addr:suburb": "Boa Viagem", "leisure": "fitness_centre", "name": "Academia HI"}}, {"type": "Feature", "id": 4756923326, "geometry": {"type": "Point", "coordinates": [-34.8716654, -8.0610338]}, "properties": {"amenity": "theatre", "name:en": "Teatro Mamulengo"}}, {"type": "Feature", "id": 4760870770, "geometry": {"type": "Point", "coordinates": [-34.9411718, -8.0836702]}, "properties": {"leisure": "yes"}}, {"type": "Feature", "id": 4801528223, "geometry": {"type": "Point", "coordinates": [-34.8975322, -8.0354755]}, "properties": {"addr:street": "Avenida Santos Dumont", "amenity": "nightclub", "name": "Casa Rosada Recep\u00e7\u00f5es", "name:pt": "Casa Rosada Recep\u00e7\u00f5es"}}]}