{"type": "FeatureCollection", "features": [{"type": "Feature", "id": 565781488, "geometry": {"type": "Point", "coordinates": [-34.8969861, -8.0627092]}, "properties": {"amenity": "bank", "operator": "Itau"}}, {"type": "Feature", "id": 565781493, "geometry": {"type": "Point", "coordinates": [-34.8980161, -8.0621738]}, "properties": {"amenity": "bank", "operator": "HSBC"}}, {"type": "Feature", "id": 565781494, "geometry": {"type": "Point", "coordinates": [-34.8969346, -8.0622928]}, "properties": {"amenity": "bank", "brand": "Ita\u00fa", "operator": "Unibanco"}}, {"type": "Feature", "id": 1712660228, "geometry": {"type": "Point", "coordinates": [-34.9302998, -8.0629754]}, "properties": {"amenity": "bank", "name": "Banco do Brasil CHESF"}}, {"type": "Feature", "id": 1712663276, "geometry": {"type": "Point", "coordinates": [-34.9301769, -8.0630154]}, "properties": {"amenity": "bank", "name": "Caixa Econ\u00f4mica Federal CHESF"}}, {"type": "Feature", "id": 2247140711, "geometry": {"type": "Point", "coordinates": [-34.9408895, -8.0396832]}, "properties": {"addr:housename": "Ag\u00eancia do Ita\u00fa", "amenity": "bank", "atm": "yes", "name": "Ita\u00fa"}}, {"type": "Feature", "id": 2247140733, "geometry": {"type": "Point", "coordinates": [-34.940772, -8.0397361]}, "properties": {"addr:housename": "Ag\u00eancia do Bradesco", "amenity": "bank", "atm": "yes", "name": "Bradesco"}}, {"type": "Feature", "id": 3194760550, "geometry": {"type": "Point", "coordinates": [-34.9169003, -8.0267118]}, "properties": {"amenity": "bank", "name": "Banco do Brasil de Casa Amarela"}}, {"type": "Feature", "id": 3194760551, "geometry": {"type": "Point", "coordinates": [-34.9172833, -8.026765]}, "properties": {"amenity": "bank", "name": "Caixa Econ\u00f4mica Federal"}}, {"type": "Feature", "id": 3547938957, "geometry": {"type": "Point", "coordinates": [-34.9454169, -8.0513959]}, "properties": {"amenity": "bank", "name": "Banco do Brasil Cidade Universit\u00e1ria"}}, {"type": "Feature", "id": 3547938958, "geometry": {"type": "Point", "coordinates": [-34.9449732, -8.0515577]}, "properties": {"amenity": "bank", "name": "Caixa Econ\u00f4mica Federal"}}, {"type": "Feature", "id": 3547938959, "geometry": {"type": "Point", "coordinates": [-34.9447071, -8.0515577]}, "properties": {"amenity": "bank", "name": "Santander"}}, {"type": "Feature", "id": 3720515979, "geometry": {"type": "Point", "coordinates": [-34.8845851, -8.0686464]}, "properties": {"amenity": "atm", "name": "Bradesco"}}, {"type": "Feature", "id": 3720515980, "geometry": {"type": "Point", "coordinates": [-34.8766307, -8.0642868]}, "properties": {"addr:city": "Recife", "addr:housenumber": "25", "addr:postcode": "50010-070", "addr:street": "Rua Primeiro de Mar\u00e7o", "amenity": "bank", "atm": "yes", "name": "Ita\u00fa", "ref": "0363"}}, {"type": "Feature", "id": 3720516609, "geometry": {"type": "Point", "coordinates": [-34.8845707, -8.0686434]}, "properties": {"amenity": "atm", "name": "Banco 24 Horas"}}, {"type": "Feature", "id": 3720568047, "geometry": {"type": "Point", "coordinates": [-34.9090043, -8.0916241]}, "properties": {"amenity": "atm", "drive_through": "no", "name": "Banco 24 Horas", "operator": "Banco 24 Horas"}}, {"type": "Feature", "id": 3721906520, "geometry": {"type": "Point", "coordinates": [-34.9012399, -8.131372]}, "properties": {"amenity": "bank", "atm": "yes", "brand": "Ita\u00fa"}}, {"type": "Feature", "id": 3721906521, "geometry": {"type": "Point", "coordinates": [-34.9015532, -8.1312281]}, "properties": {"amenity": "bank", "atm": "yes", "brand": "Caixa"}}, {"type": "Feature", "id": 3723510891, "geometry": {"type": "Point", "coordinates": [-34.912103, -8.1086113]}, "properties": {"amenity": "bank", "name": "Ita\u00fa"}}, {"type": "Feature", "id": 3723512598, "geometry": {"type": "Point", "coordinates": [-34.9116713, -8.1088514]}, "properties": {"amenity": "bank", "atm": "yes", "name": "Santander"}}, {"type": "Feature", "id": 3723512600, "geometry": {"type": "Point", "coordinates": [-34.9117894, -8.1072792]}, "properties": {"amenity": "bank", "atm": "yes", "name": "Ita\u00fa"}}, {"type": "Feature", "id": 3723548609, "geometry": {"type": "Point", "coordinates": [-34.9115461, -8.1083341]}, "properties": {"amenity": "bank", "atm": "yes", "name": "Santander"}}, {"type": "Feature", "id": 3772261959, "geometry": {"type": "Point", "coordinates": [-34.9077932, -8.0587374]}, "properties": {"amenity": "bank", "atm": "yes", "name": "Caixa Econ\u00f4mica Federal"}}, {"type": "Feature", "id": 3855284895, "geometry": {"type": "Point", "coordinates": [-34.9130162, -8.0356073]}, "properties": {"amenity": "bank", "atm": "yes", "name": "Banco Ita\u00fa"}}, {"type": "Feature", "id": 4331469906, "geometry": {"type": "Point", "coordinates": [-34.8922433, -8.0386811]}, "properties": {"addr:street": "Avenida Norte Miguel Arraes de Alencar", "amenity": "bank", "name": "Santander - Ag. Encruzilhada"}}, {"type": "Feature", "id": 4444574200, "geometry": {"type": "Point", "coordinates": [-34.9068931, -8.0534404]}, "properties": {"amenity": "bank", "name": "Caixa 24H"}}, {"type": "Feature", "id": 4475039389, "geometry": {"type": "Point", "coordinates": [-34.8949148, -8.1163264]}, "properties": {"addr:street": "Avenida Conselheiro Aguiar", "amenity": "bank", "name": "Ita\u00fa", "opening_hours": "Mo-Fr 08:00-16:00"}}, {"type": "Feature", "id": 4741372426, "geometry": {"type": "Point", "coordinates": [-34.8903571, -8.0371084]}, "properties": {"addr:street": "Estrada de Bel\u00e9m", "amenity": "bank", "name": "Ita\u00fa", "name:pt": "Ita\u00fa"}}, {"type": "Feature", "id": 4741372427, "geometry": {"type": "Point", "coordinates": [-34.8918508, -8.0380264]}, "properties": {"addr:street": "Avenida Jo\u00e3o de Barros", "amenity": "bank", "name": "Bradesco", "name:pt": "Bradesco"}}, {"type": "Feature", "id": 4741387623, "geometry": {"type": "Point", "coordinates": [-34.8907679, -8.03874]}, "properties": {"addr:street": "Avenida Norte Miguel Arraes de Alencar", "amenity": "bank", "name": "Banco do Brasil", "name:pt": "Banco do Brasil"}}, {"type": "Feature", "id": 4741387624, "geometry": {"type": "Point", "coordinates": [-34.8901583, -8.0377188]}, "properties": {"addr:street": "Rua Castro Alves", "amenity": "bank", "name": "Caixa Econ\u00f4mica Federal", "name:pt": "Caixa Econ\u00f4mica Federal"}}, {"type": "Feature", "id": 4752706123, "geometry": {"type": "Point", "coordinates": [-34.9005692, -8.03833]}, "properties": {"addr:street": "Avenida Conselheiro Rosa e Silva", "amenity": "bank", "name": "Ita\u00fa", "name:pt": "Ita\u00fa"}}, {"type": "Feature", "id": 4802799924, "geometry": {"type": "Point", "coordinates": [-34.8917241, -8.0343288]}, "properties": {"addr:street": "Avenida Beberibe", "amenity": "bank", "name": "Banco do Brasil", "name:pt": "Banco do Brasil"}}, {"type": "Feature", "id": 4809863822, "geometry": {"type": "Point", "coordinates": [-34.8729731, -8.0592367]}, "properties": {"addr:street": "Cais do Apolo", "amenity": "bank", "name": "Caixa Econ\u00f4mica Federal", "name:pt": "Caixa Econ\u00f4mica Federal"}}, {"type": "Feature", "id": 4831043322, "geometry": {"type": "Point", "coordinates": [-34.8733526, -8.0634956]}, "properties": {"addr:street": "Avenida Marques de Olinda", "amenity": "bank", "name": "Ita\u00fa", "name:pt": "Ita\u00fa"}}, {"type": "Feature", "id": 4831054021, "geometry": {"type": "Point", "coordinates": [-34.8733305, -8.0622442]}, "properties": {"addr:street": "Avenida Rio Branco", "amenity": "bank", "name": "Banco do Brasil", "name:pt": "Banco do Brasil"}}, {"type": "Feature", "id": 4831054022, "geometry": {"type": "Point", "coordinates": [-34.8725857, -8.0633775]}, "properties": {"addr:street": "Avenida Marques de Olinda", "amenity": "bank", "name": "Citibank", "name:pt": "Citibank"}}, {"type": "Feature", "id": 4831054023, "geometry": {"type": "Point", "coordinates": [-34.8733983, -8.0636274]}, "properties": {"addr:street": "Avenida Marques de Olinda", "amenity": "bank", "name": "Caixa Econ\u00f4mica Federal", "name:pt": "Caixa Econ\u00f4mica Federal"}}]}